house_number,road,residential,hamlet,town,county,state,country,country_code,city,postcode,suburb,neighbourhood,locality,amenity,leisure,village,building,retail,natural
21720,218th Court Northeast,Westchester,Avondale,Union Hill-Novelty Hill,King County,Washington,United States of America,us,,,,,,,,,,,
18396,Dayton Place North,,Richmond Highlands,,King County,Washington,United States of America,us,Shoreline,98133,,,,,,,,,
1749,Northwest 60th Street,,,,King County,Washington,United States of America,us,Seattle,98107,Ballard,,,,,,,,
3908,Northeast 22nd Street,,May Creek,,King County,Washington,United States of America,us,Renton,98056,,Glencoe,,,,,,,
3616,Southwest 339th Place,,,Federal Way,King County,Washington,United States of America,us,,98023,,,,,,,,,
4804,South 378th Street,,Benroy,,King County,Washington,United States of America,us,,98001,,Jovita,Lakeland South,,,,,,
,166th Avenue Southeast,,Vasa Park,,King County,Washington,United States of America,us,Bellevue,99007,,Sammamish Heights,,Spiritridge Elementary School,,,,,
44470,Southeast 142nd Place,,Tanner,,King County,Washington,United States of America,us,,98045,,,,,,,,,
13517,Southeast 253rd Place,,East Hill,,King County,Washington,United States of America,us,Kent,98042,,Heather Glen,,,,,,,
5701,East Green Lake Way North,,,,King County,Washington,United States of America,us,Seattle,98103,Green Lake,Meridian,,,Green Lake Pitch and Putt,,,,
1723,Northwest 61st Street,,,,King County,Washington,United States of America,us,Seattle,98107,Ballard,Sunset Hill,,First Slavic Full Gospel Church,,,,,
26434,228th Avenue Southeast,Wilderness Hills,Danville,Maple Valley,King County,Washington,United States of America,us,,98038,,,,,,,,,
2496,25th Avenue Northeast,View Ridge,High Point,Issaquah,King County,Washington,United States of America,us,,98029,,,,,,,,,
16789,32nd Place Northeast,,Sheridan Beach,,King County,Washington,United States of America,us,Lake Forest Park,98155,,North City,,,,,,,
15226,230th Avenue Southeast,,Mirrormount Estates,,King County,Washington,United States of America,us,,98027,East Renton Highlands,,,,,,,,
9010,Northeast 26th Street,,,,King County,Washington,United States of America,us,,98004,,,,,,Clyde Hill,,,
8605,Northeast 137th Street,,Finn Hill,Kirkland,King County,Washington,United States of America,us,,98034,,Simonds Estates,,,,,,,
1000,Northeast Ingram Street,Vista Park,Klahanie,Issaquah,King County,Washington,United States of America,us,,98029,,,,,,,,,
1032,South 32nd Place,,Benson Hill,,King County,Washington,United States of America,us,Renton,98055,,Winsper,,,,,,,
14441,5th Avenue South,,McVan,Burien,King County,Washington,United States of America,us,,98168,,Highline,,,,,,,
,Evergreen Point Road,,,,King County,Washington,United States of America,us,Medina,98039,,,,,,,,,
230,Martin Luther King Junior Way East,,,,King County,Washington,United States of America,us,Seattle,98112,Madrona,,,,,,,,
7603,Northeast 140th Place,,Inglewood,Kirkland,King County,Washington,United States of America,us,,98034,,Simonds Estates,,,,,,,
5912,17th Avenue South,,Rainier Vista,,King County,Washington,United States of America,us,Seattle,98108,,Van Asselt,,,,,,,
,122nd Avenue Northeast,,,,King County,Washington,United States of America,us,Bellevue,98033-7722,,,,,,,,,
2515,24th Street Southeast,,,,King County,Washington,United States of America,us,Auburn,98002,Forrest Villa,,,,,,,,
10911,Southeast 6th Street,Surrey Downs,,,King County,Washington,United States of America,us,Bellevue,98004,,,,,,,,,
6599,143rd Avenue Northeast,Tamaric Ridge,Earlmont,Redmond,King County,Washington,United States of America,us,,98052,,,,,,,,,
9817,Fremont Avenue North,,,,King County,Washington,United States of America,us,Seattle,98103,Greenwood,Licton Springs,,,,,,,
1714,Northeast 65th Street,,,,King County,Washington,United States of America,us,Seattle,98115,Green Lake,Ravenna,,,,,,,
25511,122nd Place Southeast,,East Hill,,King County,Washington,United States of America,us,Kent,98030,,Seven Oaks East,,,,,,,
24161,Southeast 46th Place,,Klahanie,,King County,Washington,United States of America,us,Sammamish,98029,,Hunter's Ridge,,,,,,,
383,Mount Defiance Circle Southwest,,,Issaquah,King County,Washington,United States of America,us,,98027,,Maleki Meadows,,,,,,,
615,Glacier Avenue South,,Benroy,,King County,Washington,United States of America,us,Pacific,98047,,,,,,,,,
4906,Woodlawn Avenue North,,,,King County,Washington,United States of America,us,Seattle,98103,Wallingford,Meridian,,,,,,,
,Lake Ballinger Way,,Sheridan Beach,,King County,Washington,United States of America,us,Lake Forest Park,98155,,,,,,,,,
10439,63rd Avenue South,,Black River Junction,,King County,Washington,United States of America,us,Seattle,98178,,Rainier Beach,,,,,,,
1707,27th Avenue,,,,King County,Washington,United States of America,us,Seattle,98122,Madison Valley,,,,,,,,
3926,Northeast 4th Circle,Crown Pointe Apartments,Kennydale,,King County,Washington,United States of America,us,Renton,98056,,,,,,,,,
317,Powell Avenue Southwest,,Black River Junction,,King County,Washington,United States of America,us,Renton,98057,,,,,,,,,
1518,25th Avenue,,,,King County,Washington,United States of America,us,Seattle,98122,Madison Valley,,,,,,,,
,Brook Trails Trail #14,,Cottage Lake,,King County,Washington,United States of America,us,,98077,,,Cottage Lake,,,,,,
16298,195th Place Northeast,,Cottage Lake,,King County,Washington,United States of America,us,,98077,,,Cottage Lake,,,,,,
6823,Ravenna Avenue Northeast,,,,King County,Washington,United States of America,us,Seattle,98115,University District,Ravenna,,,,,,,
624,Lake Washington Boulevard East,,,,King County,Washington,United States of America,us,Seattle,98112,Denny-Blaine,Montlake,,,,,,,
6546,195th Place Northeast,Woodbridge,Campton,Redmond,King County,Washington,United States of America,us,,98052-6088,,,,,,,,,
14026,81st Place Northeast,,Inglewood,Kirkland,King County,Washington,United States of America,us,,98034,,Simonds Estates,,,,,,,
30655,1st Place South,,,Federal Way,King County,Washington,United States of America,us,,98003,,Puget Sound Hills,,,,,,,
27199,Northeast Kennedy Drive,,Novelty,,King County,Washington,United States of America,us,Duvall,98019,,,,,,,,,
3113,122nd Place Northeast,Pikes Peak,,,King County,Washington,United States of America,us,Bellevue,98005,,,,,,,,,
2500,Southwest Trenton Street,,Westwood,,King County,Washington,United States of America,us,Seattle,98106,,,,,,,Westwood Apartments,Westwood Village,
9221,Odin Way,,Inglewood,,King County,Washington,United States of America,us,Bothell,98011,,Stonehedge Village,,,,,,,
29440,164th Avenue Southeast,,Berrydale,,King County,Washington,United States of America,us,,98042,,,Lake Morton-Berrydale,,,,,,
7717,35th Avenue Northeast,,,,King County,Washington,United States of America,us,Seattle,98115,Wedgwood,Wedgwood,,,,,,,
2003,Killarney Drive Southeast,,,,King County,Washington,United States of America,us,Bellevue,98004,,,,,,,,,
6032,35th Avenue Northeast,,Inverness,,King County,Washington,United States of America,us,Seattle,98115,,Ravenna,,,,,,,
23848,Southeast 246th Street,,Orchard Grove,Maple Valley,King County,Washington,United States of America,us,,98038,,Belmont Woods,,,,,,,
11224,Southeast 306th Place,,,,King County,Washington,United States of America,us,Auburn,98092,,,Lea Hill,,,,,,
11213,Dayton Avenue North,,Bitter Lake,,King County,Washington,United States of America,us,Seattle,98133,,Licton Springs,,,,,,,
10417,Northeast 142nd Street,,Oskams Corner,Kirkland,King County,Washington,United States of America,us,,98034,,Maple Glen,,,,,,,
6738,6th Avenue Northwest,,,,King County,Washington,United States of America,us,Seattle,98117,Phinney Ridge,Whittier Heights,,,,,,,
2606,Northwest 91st Street,,North Beach,,King County,Washington,United States of America,us,Seattle,98117,,,,,,,,,
31627,45th Place Southwest,,Dash Point,Federal Way,King County,Washington,United States of America,us,,98023,,Twin Lakes,,,,,,,
,,,May Creek,,King County,Washington,United States of America,us,Mercer Island,98056-8312,,,,,,,,,
15810,Southeast 48th Drive,,Cougar Hills,,King County,Washington,United States of America,us,Bellevue,98006,,,,,,,,,
8356,18th Avenue Northwest,,Olympic Manor,,King County,Washington,United States of America,us,Seattle,98117,,Whittier Heights,,,,,,,
18490,24th Avenue Northeast,,Sheridan Beach,,King County,Washington,United States of America,us,Shoreline,98155,,North City,,,,,,,
34410,30th Avenue Southwest,,,Federal Way,King County,Washington,United States of America,us,,98023,,,,,,,,,
15516,118th Place Northeast,Queensgate,,,King County,Washington,United States of America,us,Bothell,98011,Canyon Park,,,,,,,,
14808,104th Avenue Northeast,,Oskams Corner,,King County,Washington,United States of America,us,Bothell,98011,,Maple Glen,,,,,,,
9868,Northeast 13th Street,,,,King County,Washington,United States of America,us,Bellevue,98004,,,,,,,,,
16251,114th Avenue Southeast,,,,King County,Washington,United States of America,us,Renton,98055,,Victoria Hills,,,,,,,
9310,Southeast 72nd Street,,May Creek,,King County,Washington,United States of America,us,Mercer Island,98040,,,,,,,,,
33813,37th Avenue Southwest,,,Federal Way,King County,Washington,United States of America,us,,98023,,,,,,,,,
18328,Southeast Covington Sawyer Road,,Berrydale,,King County,Washington,United States of America,us,,98042,,,Lake Morton-Berrydale,,,,,,
31613,115th Avenue Southeast,,,,King County,Washington,United States of America,us,Auburn,98092,,,,,,,,,
11833,3rd Avenue South,,,Burien,King County,Washington,United States of America,us,,98168,White Center,Beverly Park,,,,,,,
671,Shelton Avenue Northeast,,Kennydale,,King County,Washington,United States of America,us,Renton,98056,,President Park,,,,,,,
3212,37th Avenue Southwest,,,,King County,Washington,United States of America,us,Seattle,98126,West Seattle,Admiral,,,,,,,
21737,Southeast 299th Way,,One Hundred One Pines,,King County,Washington,United States of America,us,Kent,98042,,The Ridge at Lake Sawyer,,,,,,,
,Northeast 80th Street,,Rose Hill,Redmond,King County,Washington,United States of America,us,,98052-4176,,,,,,,,,
10447,Southeast 222nd Street,,East Hill,,King County,Washington,United States of America,us,Kent,98031,,Stonepine,,,,,,,
27927,155th Place Southeast,,Berrydale,,King County,Washington,United States of America,us,Kent,98042,,,,,,,,,
28822,44th Avenue South,,,,King County,Washington,United States of America,us,,98001,,Wyngates,Lakeland North,,,,,,
13118,Southeast 234th Street,,East Hill,,King County,Washington,United States of America,us,Kent,98031,,Kensington Heights,,,,,,,
516,15th Avenue,,,Kirkland,King County,Washington,United States of America,us,,98033,Juanita,,,,,,,,
7323,16th Avenue Northeast,,,,King County,Washington,United States of America,us,Seattle,98115,Green Lake,,,,,,,,
4115,Northeast 62nd Street,,,,King County,Washington,United States of America,us,Seattle,98115,University District,Ravenna,,,,,,,
3006,Northwest 60th Street,,Seaview,,King County,Washington,United States of America,us,Seattle,98107,,Sunset Hill,,,,,,,
27119,Northeast Stewart Street,,Novelty,,King County,Washington,United States of America,us,Duvall,98019,,,,,,,,,
29912,114th Way Southeast,,,,King County,Washington,United States of America,us,Auburn,98092,,,Lea Hill,,,,,,
14423,25th Avenue Southwest,,Arbor Heights,Burien,King County,Washington,United States of America,us,,98166,,Seahurst,,,,,,,
4727,Southwest 315th Place,,Dash Point,Federal Way,King County,Washington,United States of America,us,,98023,,Twin Lakes,,,,,,,
,,,Timberlane,,King County,Washington,United States of America,us,Covington,98042,,Covington Woods,,,,,,,
4305,South Webster Street,,,,King County,Washington,United States of America,us,Seattle,98118,Rainier Valley,Dunlap,,,,,,,
6251,40th Avenue Northeast,,,,King County,Washington,United States of America,us,Seattle,98115,Wedgwood,Laurelhurst,,,,,,,
21218,Southeast 260th Street,,Cherokee Bay Park,Maple Valley,King County,Washington,United States of America,us,,98038,,Highlands at Cedar Downs,,,,,,,
,Northeast 28th Street,,,,King County,Washington,United States of America,us,Medina,98039,Madison Park,,,,,,,,
8607,36th Avenue Southwest,,Arbor Heights,,King County,Washington,United States of America,us,Seattle,98126,,,,,,,,,
10507,Northeast 151st Street,,Oskams Corner,,King County,Washington,United States of America,us,Bothell,98011,,Stonehedge Village,,,,,,,
2648,Northeast 153rd Street,,Briarcrest,,King County,Washington,United States of America,us,Shoreline,98155,,Kenwood,,,,,,,
,Northeast 65th Street,,Earlmont,Redmond,King County,Washington,United States of America,us,,,,,,,,,,,
,Southeast 10th Street,,Harman Heights,North Bend,King County,Washington,United States of America,us,,98045,,,,,,,,,
19304,65th Avenue Northeast,,Moorlands,,King County,Washington,United States of America,us,Kenmore,98028,,,,,,,,,
19299,Whitman Avenue North,,Echo Lake,,King County,Washington,United States of America,us,Shoreline,98133,,,,,,,,,
28515,Southeast 226th Street,,Landsburg,Hobart,King County,Washington,United States of America,us,,98038,,,,,,,,,
,208th Place Northeast,,Inglewood,,King County,Washington,United States of America,us,Sammamish,98074-3718,,,,,Sahalee Country Club,,,,
20225,140th Avenue Southeast,,,,King County,Washington,United States of America,us,,98042,,,East Hill-Meridian,,,,,,
21846,Southeast 236th Place,,Wilderness Village,Maple Valley,King County,Washington,United States of America,us,,98038,,Jaqueline Meadows,,,,,,,
1408,Northwest 59th Street,,,,King County,Washington,United States of America,us,Seattle,98107,Ballard,Sunset Hill,,,,,,,
6003,Lanham Place Southwest,,,,King County,Washington,United States of America,us,Seattle,98126,Delridge,,,,,,,,
14899,Southeast 10th Place,,,,King County,Washington,United States of America,us,Bellevue,98007,,,,,,,,,
33405,East Lake Holm Drive Southeast,,Wynaco,,King County,Washington,United States of America,us,,98092,,Wynaco,,,,,,,
260022,Southeast 23rd Place,,Klahanie,,King County,Washington,United States of America,us,Sammamish,98075,,Tibbets Station,,,,,,,
11734,Beacon Avenue South,,Skyway,,King County,Washington,United States of America,us,Seattle,98178,,,,,,,,,
3020,Southwest Thistle Street,,Westwood,,King County,Washington,United States of America,us,Seattle,98126,,,,,,,,,
5830,246th Place Northeast,,,Union Hill-Novelty Hill,King County,Washington,United States of America,us,,98053,,,,,,,,,
,110th Avenue Northeast,,Rose Hill,Kirkland,King County,Washington,United States of America,us,,98033-7722,,,,,,,,,Watershed Park Forest
562,Jefferson Avenue Northeast,,Maplewood,,King County,Washington,United States of America,us,Renton,98056,,Highlands Park,,,,,,,
22512,Southeast Auburn-Black Diamond Road,,One Hundred One Pines,,King County,Washington,United States of America,us,,98010,,The Ridge at Lake Sawyer,,,,,,,
1900,Harvard Avenue East,,,,King County,Washington,United States of America,us,Seattle,98102,Capitol Hill,Eastlake,,,,,,,
20132,84th Place Northeast,,,,King County,Washington,United States of America,us,Bothell,98011,Canyon Park,,,,,,,,
3755,South 168th Street,,McMicken Heights,SeaTac,King County,Washington,United States of America,us,,98188,,,,,,,,,
114,16th Avenue,,,,King County,Washington,United States of America,us,Seattle,98122,Central District,Little Saigon,,,,,,,
8059,Loyal Way Northwest,,North Beach,,King County,Washington,United States of America,us,Seattle,98117,,Loyal Heights,,,,,,,
332,South 314th Place,,,Federal Way,King County,Washington,United States of America,us,,98003,,Mirror Lake,,,,,,,
7327,19th Avenue Northeast,,,,King County,Washington,United States of America,us,Seattle,98115,Wedgwood,,,,,,,,
5149,South Findlay Street,,,,King County,Washington,United States of America,us,Seattle,98118,Rainier Valley,Seward Park,,,,,,,
1216,106th Place Northeast,,,,King County,Washington,United States of America,us,Bellevue,98004,,,,,,,,,
18107,83rd Avenue Northeast,,Moorlands,,King County,Washington,United States of America,us,Kenmore,98028,,,,,,,,,
1503,45th Avenue Southwest,,,,King County,Washington,United States of America,us,Seattle,98116,West Seattle,Admiral,,,,,,,
2918,27th Avenue West,,,,King County,Washington,United States of America,us,Seattle,98199,Magnolia,Lawton Park,,,,,,,
11410,107th Place Northeast,,,Kirkland,King County,Washington,United States of America,us,,98033,Juanita,,,,,,,,
6600,Crest View Loop Southeast,,Spring Glen,Snoqualmie,King County,Washington,United States of America,us,,98065,,Crestview,,,,,,,
7914,Lake Alice Road Southeast,,Upper Preston,,King County,Washington,United States of America,us,,98024,,,,,,Fall City,,,
4802,Mill Pond Loop,,,,King County,Washington,United States of America,us,Auburn,98092,Lakeland Hills,,,,,,,,
1702,32nd Avenue,,,,King County,Washington,United States of America,us,Seattle,98122,Madrona,,,,,,,,
12403,95th Place Northeast,,,Kirkland,King County,Washington,United States of America,us,,98034,Juanita,Maple Glen,,,,,,,
12646,74th Place South,,Black River Junction,,King County,Washington,United States of America,us,,98178,,,Bryn Mawr-Skyway,,,,,,
1192,Harding Street,,Boise,Enumclaw,King County,Washington,United States of America,us,,98022,,,,,,,,,
24226,9th Avenue South,,,Des Moines,King County,Washington,United States of America,us,,98198,,Zenith,,,,,,,
25516,Southeast 274th Place,Maple Ridge Highlands,Ravensdale,,King County,Washington,United States of America,us,,98038,,,,,,,,,
14116,Southeast 193rd Street,,,,King County,Washington,United States of America,us,,98058,,,East Hill-Meridian,,,,,,
1719,46th Avenue Southwest,,,,King County,Washington,United States of America,us,Seattle,98116,West Seattle,Admiral,,,,,,,
13899,231st Lane Northeast,Olympus,,Union Hill-Novelty Hill,King County,Washington,United States of America,us,,98053,Trilogy,,,,,,,,
305,South 297th Street,,,Federal Way,King County,Washington,United States of America,us,,98003,,Puget Sound Hills,,,,,,,
,Southeast 44th Court,,,,King County,Washington,United States of America,us,Bellevue,99007,Eastgate,,,,,,,,
3821,Northeast 89th Street,,,,King County,Washington,United States of America,us,Seattle,98115,Wedgwood,Wedgwood,,,,,,,
6336,East Mercer Way,,,,King County,Washington,United States of America,us,Mercer Island,98040,,,,,,,,,
2315,42nd Avenue East,,,,King County,Washington,United States of America,us,Seattle,98112,Madison Park,Edgewater Park,,,,,,,
14447,168th Avenue Northeast,,Hollywood Hill,,King County,Washington,United States of America,us,,98072,,,Cottage Lake,,,,,,
4217,Southwest 335th Place,,Dash Point,Federal Way,King County,Washington,United States of America,us,,98023,,,,,,,,,
7424,140th Place Northeast,Woodford,Earlmont,Redmond,King County,Washington,United States of America,us,,98052-4176,,,,,,,,,
5221,25th Avenue Southwest,,,,King County,Washington,United States of America,us,Seattle,98106,Delridge,Youngstown,,,,,,,
14717,59th Avenue South,,Black River Junction,,King County,Washington,United States of America,us,Tukwila,98168,,,,,,,,,
7788,89th Place Southeast,,May Creek,,King County,Washington,United States of America,us,Mercer Island,98040,,,,,,,,,
4514,33rd Avenue South,,Rainier Vista,,King County,Washington,United States of America,us,Seattle,98118,,Columbia City,,,,,,,
8552,18th Avenue Northwest,,Olympic Manor,,King County,Washington,United States of America,us,Seattle,98117,,Whittier Heights,,,,,,,
,,,Echo Lake,,King County,Washington,United States of America,us,Shoreline,98133-6124,,,,,,,,,
720,West Etruria Street,,,,King County,Washington,United States of America,us,Seattle,98119,Queen Anne,,,,,,,,
3405,South 294th Street,,,,King County,Washington,United States of America,us,,98001,West Hill,,Lakeland North,,,,,,
6390,84th Avenue Southeast,,May Creek,,King County,Washington,United States of America,us,Mercer Island,98040,,,,,,,,,
816,Northwest 49th Street,,,,King County,Washington,United States of America,us,Seattle,98107,Phinney Ridge,,,,,,,,
29600,3rd Avenue South,,,Federal Way,King County,Washington,United States of America,us,,98003,,Puget Sound Hills,,,,,,,
1215,Southwest 110th Lane,,,,King County,Washington,United States of America,us,,98146,White Center,,,,,,,,
6709,Roosevelt Way Northeast,,,,King County,Washington,United States of America,us,Seattle,98115,Green Lake,,,,,,North Towne Manor,,
16807,Northeast 107th Street,,Avondale,Redmond,King County,Washington,United States of America,us,,98052,,Education Hill,,,,,,,
2422,Blaine Avenue Northeast,,Kennydale,,King County,Washington,United States of America,us,Renton,98056,,Kennydale,,,,,,,
4623,South 124th Street,,Allentown,,King County,Washington,United States of America,us,Tukwila,98178,,,,,,,,,
1628,9th Avenue West,,,,King County,Washington,United States of America,us,Seattle,98119,Queen Anne,Interbay,,,,,,,
1301,229th Place Northeast,,Inglewood,,King County,Washington,United States of America,us,Sammamish,98074,,,,,,,,,
25695,Southeast 39th Way,Summerwalk at Klahanie,Klahanie,,King County,Washington,United States of America,us,Sammamish,98029,,,,,,,,,
9908,South 210th Place,,East Hill,,King County,Washington,United States of America,us,Kent,98031,,Stonepine,,,,,,,
2651,48th Avenue Southwest,,,,King County,Washington,United States of America,us,Seattle,98116,West Seattle,Admiral,,,,,,,
2055,246th Avenue Southeast,,Klahanie,,King County,Washington,United States of America,us,Sammamish,98075,,,,,,,,,
17481,Northeast 34th Street,,Kenilworth,Redmond,King County,Washington,United States of America,us,,98052,,Sherwood Forest,,,,,,,
,,,Richmond Beach,,King County,Washington,United States of America,us,Shoreline,98020,,,,,,,,,
16098,15th Avenue Northeast,,Ridgecrest,,King County,Washington,United States of America,us,Shoreline,98155,,North City,,,,,,,
,134th Avenue Southeast,,,,King County,Washington,United States of America,us,Bellevue,98006,,,,,,,,,
224,3rd Avenue Northwest,,Benroy,,King County,Washington,United States of America,us,Pacific,98047,,,,,,,,,
3738,Southwest Ida Street,,Westwood,,King County,Washington,United States of America,us,Seattle,98126,,High Point,,,,,,,
14090,Southeast 44th Place,,Somerset,,King County,Washington,United States of America,us,Bellevue,98006,,,,,,,,,
15416,146th Place Southeast,,,,King County,Washington,United States of America,us,Renton,98058,,Pioneer Place,,,,,,,
3433,14th Avenue West,,,,King County,Washington,United States of America,us,Seattle,98119,Queen Anne,Interbay,,,,,,,
2273,Morley Place West,,Magnolia Village,,King County,Washington,United States of America,us,Seattle,98199,,Carleton Park,,,,,,,
10727,36th Avenue Northeast,,Alicia Park,,King County,Washington,United States of America,us,Seattle,98125,,Cedar Park,,,,,,,
17067,Northeast 172nd Place,,Hollywood Hill,,King County,Washington,United States of America,us,,98072,,,Cottage Lake,,,,,,
2580,Crestmont Place West,,Magnolia Village,,King County,Washington,United States of America,us,Seattle,98199,,Carleton Park,,,,,,,
443,Northeast Ravenna Boulevard,,,,King County,Washington,United States of America,us,Seattle,98115,Green Lake,Meridian,,,,,,,
5806,Northeast 3rd Street,,,,King County,Washington,United States of America,us,Renton,98059,,Maplewood Estates,,,,,,,
12701,Southeast 68th Place,,,,King County,Washington,United States of America,us,Bellevue,98006,,,,,,,,,
26010,220th Avenue Southeast,,Cherokee Bay Park,Maple Valley,King County,Washington,United States of America,us,,98038,,Sunridge at Elk Run,,,,,,,
,Northeast 30th Court,Winchester Estates,,,King County,Washington,United States of America,us,Bellevue,98007,,,,,,,,,
7335,35th Avenue Southwest,,Westwood,,King County,Washington,United States of America,us,Seattle,98126,,High Point,,,,,,,
7353,16th Avenue Northwest,,Olympic Manor,,King County,Washington,United States of America,us,Seattle,98117,,Whittier Heights,,,,,,,
7432,Heather Avenue Southeast,,Spring Glen,Snoqualmie,King County,Washington,United States of America,us,,98065,,Fairway,,,,,,,
552,Elma Place Northeast,,,,King County,Washington,United States of America,us,Renton,98059,,Blueberry Place,,,,,,,
22919,19th Avenue South,,,Des Moines,King County,Washington,United States of America,us,,98198,,Central Des Moines,,,,,,,
,Lake City Way Northeast,,Victory Heights,,King County,Washington,United States of America,us,Seattle,98125,,Wedgwood,,,,,Public Storage,,
8411,13th Avenue Southwest,,Westwood,,King County,Washington,United States of America,us,Seattle,98106,,Highland Park,,,,,,,
5133,188th Place Northeast,,Adelaide,,King County,Washington,United States of America,us,Sammamish,98052-6088,,,,,,,,,
11465,Southeast 66th Street,,Pines,,King County,Washington,United States of America,us,Bellevue,98006,,,,,,,,,
2226,Northwest 63rd Street,,,,King County,Washington,United States of America,us,Seattle,98107,Ballard,Sunset Hill,,,,,,,
,Southeast 72nd Street,,May Creek,,King County,Washington,United States of America,us,Mercer Island,98118,,,,Islander Middle School,,,,,
2620,Belvidere Avenue Southwest,,,,King County,Washington,United States of America,us,Seattle,98126,West Seattle,Admiral,,,,,,,
30305,Southeast 273rd Place,,Ravensdale,,King County,Washington,United States of America,us,,98051,,,,,,,,,
4017,Northeast 22nd Street,,May Creek,,King County,Washington,United States of America,us,Renton,98056,,Glencoe,,,,,,,
22445,Northeast 18th Street,,Inglewood,,King County,Washington,United States of America,us,Sammamish,98074,,,,,,,,,
8398,Southeast 33rd Place,,Newport Shores,,King County,Washington,United States of America,us,Mercer Island,98040,,Fortuna,,,,,,,
5236,36th Avenue Southwest,,,,King County,Washington,United States of America,us,Seattle,98126,Delridge,High Point,,,,,,,
18051,Normandy Terrace Southwest,,,,King County,Washington,United States of America,us,Normandy Park,98166,,,,,,,,,
14530,Southeast 261st Street,,Meridian Heights,,King County,Washington,United States of America,us,Kent,98042,,Stillwater Green,,,,,,,
105,Valley Street,,,,King County,Washington,United States of America,us,Seattle,98109,Queen Anne,Lower Queen Anne,,,,,,,
6110,28th Avenue Northwest,,,,King County,Washington,United States of America,us,Seattle,98107,Ballard,Sunset Hill,,Adams Elementary School,,,,,
117,Ilwaco Place Southeast,,Maplewood Heights,,King County,Washington,United States of America,us,Renton,98059,,,,,,,,,
15333,106th Avenue Northeast,,Oskams Corner,,King County,Washington,United States of America,us,Bothell,98011,,Stonehedge Village,,,,,,,
12723,11th Avenue Northwest,,,,King County,Washington,United States of America,us,Seattle,98177,Broadview,,,,,,,,
20883,Northeast 141st Street,Bear Creek Country Club,Cottage Lake,,King County,Washington,United States of America,us,,98077,,,Cottage Lake,,,,,,
2568,Northeast Jewell Lane,Central Park,High Point,Issaquah,King County,Washington,United States of America,us,,98029,,,,,,,,,
7501,21st Avenue Northeast,,,,King County,Washington,United States of America,us,Seattle,98115,Maple Leaf,Ravenna,,,,,,,
5141,Southwest Dash Point Road,,,Federal Way,King County,Washington,United States of America,us,,98023,,Lakota,,,,,,,
16213,Southeast 174th Street,,,,King County,Washington,United States of America,us,,98058,,Fairwood Greens,Fairwood,,,,,,
43868,Southeast 168th Street,,Riverbend,,King County,Washington,United States of America,us,,98045,,Wilderness Rim,,,,,,,
16403,120th Avenue Southeast,,,,King County,Washington,United States of America,us,Renton,98058,,,,,,,,,
19012,46th Avenue South,,McMicken Heights,SeaTac,King County,Washington,United States of America,us,,98188,,,,,,,,,
21519,Southeast 299th Way,,One Hundred One Pines,,King County,Washington,United States of America,us,,98042,,The Ridge at Lake Sawyer,Lake Morton-Berrydale,,,,,,
17862,Southeast 192nd Drive,Wembley Park,,,King County,Washington,United States of America,us,,98058,,,Maple Heights-Lake Desire,,,,,,
1012,Northeast 94th Street,,,,King County,Washington,United States of America,us,Seattle,98115,Maple Leaf,Licton Springs,,,,,,,
5514,South Orcas Street,,,,King County,Washington,United States of America,us,Seattle,98118,Rainier Valley,Seward Park,,,,,,,
615,Celery Avenue,,,,King County,Washington,United States of America,us,Algona,98001,West Hill,,,,,,,,
2711,Northeast 75th Street,,Alicia Park,,King County,Washington,United States of America,us,Seattle,98115,,,,,,,,,
1215,Northeast 64th Street,,,,King County,Washington,United States of America,us,Seattle,98115,Green Lake,,,,,,,,
5567,Wallingford Avenue North,,,,King County,Washington,United States of America,us,Seattle,98103,Wallingford,Meridian,,,,,,,
10430,65th Avenue South,,Black River Junction,,King County,Washington,United States of America,us,Seattle,98178,,Rainier Beach,,,,,,,
26738,196th Avenue Southeast,,Timberlane,,King County,Washington,United States of America,us,Covington,98042,,Covington Woods,,,,,,,
13612,Southeast 272nd Court,,East Hill,,King County,Washington,United States of America,us,Kent,98042,,Stillwater Green,,,,,,,
8319,126th Place Southeast,,Newport Hills,,King County,Washington,United States of America,us,Newcastle,98056,,Olympus,,,,,,,
6521,Fremont Avenue North,,,,King County,Washington,United States of America,us,Seattle,98103,Phinney Ridge,Licton Springs,,,,,,,
13417,Southeast 233rd Street,,East Hill,,King County,Washington,United States of America,us,Kent,98042,,Wildwood Estates,,,,,,,
4003,West Emerson Street,,,,King County,Washington,United States of America,us,Seattle,98199,Magnolia,Lawton Park,,,,,,,
7543,18th Avenue Northeast,,,,King County,Washington,United States of America,us,Seattle,98115,University District,,,,,,,,
2651,Northeast 155th Street,,Briarcrest,,King County,Washington,United States of America,us,Shoreline,98155,,Kenwood,,,,,,,
22740,Southeast 273rd Street,,Danville,Maple Valley,King County,Washington,United States of America,us,,98038,,Elk Run,,,,,,,
428,Maple Drive Southeast,,Harman Heights,North Bend,King County,Washington,United States of America,us,,98045,,,,,,,,,
2914,Sahalee Drive East,,Inglewood,,King County,Washington,United States of America,us,Sammamish,98074,,,,,,,,,
2617,Broadway East,,,,King County,Washington,United States of America,us,Seattle,98102,,Portage Bay,,,,,,,
727,30th Avenue,,,,King County,Washington,United States of America,us,Seattle,98122,Madrona,,,,,,,,
1710,Park Drive Northeast,Crofton Springs,Klahanie,Issaquah,King County,Washington,United States of America,us,,98029,,,,,,,,,
17980,3rd Avenue Northwest,,Richmond Highlands,,King County,Washington,United States of America,us,Shoreline,98177,,,,,,,,,
23893,Southeast 249th Place,,Danville,Maple Valley,King County,Washington,United States of America,us,,98038,,Belemonte,,,,,,,
19011,4th Avenue Southwest,,,,King County,Washington,United States of America,us,Normandy Park,98166,,,,,,,,,
8586,Avalon Drive,,,,King County,Washington,United States of America,us,Mercer Island,98040,,,,,,,,,
354,25th Avenue,,,,King County,Washington,United States of America,us,Seattle,98122,Central District,,,,,,,,
14931,23rd Avenue Northeast,,Briarcrest,,King County,Washington,United States of America,us,Shoreline,98155,,Kenwood,,,,,,,
13552,16th Avenue Northeast,,,,King County,Washington,United States of America,us,Seattle,98125,Northgate,Kenwood,,,,,,,
15486,Northeast 202nd Street,,Woodinville Junction,,King County,Washington,United States of America,us,Woodinville,98072,,,,,,,,,
934,North 101st Street,,,,King County,Washington,United States of America,us,Seattle,98133,Greenwood,Licton Springs,,,,,,,
10401,Northeast 130th Street,,,Kirkland,King County,Washington,United States of America,us,,98034,Juanita,Maple Glen,,,,,,,
4328,Northeast 195th Place,,Sheridan Beach,,King County,Washington,United States of America,us,Lake Forest Park,98155,,,,,,,,,
7339,43rd Avenue South,,,,King County,Washington,United States of America,us,Seattle,98118,Rainier Valley,,,,,,,,
6407,Corliss Avenue North,,,,King County,Washington,United States of America,us,Seattle,98103,Green Lake,Meridian,,,,,,,
8332,Northeast 120th Place,,Finn Hill,Kirkland,King County,Washington,United States of America,us,,98034,,,,,,,,,
,Southeast 11th Street,,Klahanie,,King County,Washington,United States of America,us,Sammamish,,,,,,,,,,
14758,Bear Creek Road Northeast,,Cottage Lake,,King County,Washington,United States of America,us,,98077,,,Cottage Lake,,,,,,
31044,10th Avenue Southwest,,,Federal Way,King County,Washington,United States of America,us,,98023,,Marine View Demarwood,,,,,,,
19412,Normandy Park Drive Southwest,,,,King County,Washington,United States of America,us,Normandy Park,98166,,,,,,,,,
15917,Broadway Avenue Northeast,,Novelty,,King County,Washington,United States of America,us,Duvall,98019,,,,,,,,,
40202,228th Way Southeast,,Wabash,,King County,Washington,United States of America,us,,98022,,,,,,,,,
5464,119th Avenue Southeast,,Lake Heights,,King County,Washington,United States of America,us,Bellevue,98006,,,,,Newport Hills Swim and Tennis Club,,,,
2814,South 138th Street,,Latona,SeaTac,King County,Washington,United States of America,us,,98168,,,,,,,,,
9257,7th Avenue Northwest,,,,King County,Washington,United States of America,us,Seattle,98117,Greenwood,Crown Hill,,,,,,,
25430,162nd Place Southeast,,Meridian Heights,,King County,Washington,United States of America,us,Covington,98042,,Crofton Heights,,,,,,,
8201,20th Avenue Northeast,,,,King County,Washington,United States of America,us,Seattle,98115,Wedgwood,,,,,,,,
2356,16th Avenue South,,,,King County,Washington,United States of America,us,Seattle,98144,Beacon Hill,,,,,,,,
4839,Northeast 5th Street,,,,King County,Washington,United States of America,us,Renton,98059,,Blueberry Place,,,,,,,
2502,East Roanoke Street,,Canterbury,,King County,Washington,United States of America,us,Seattle,98112,,Montlake,,,,,,,
,143rd Court Northeast,,Woodinville Junction,,King County,Washington,United States of America,us,Woodinville,98072,,,,,,,,,
1055,25th Avenue East,,,,King County,Washington,United States of America,us,Seattle,98112,Madison Valley,Montlake,,,,,,,
2246,Northeast Morgan Lane,Roanoke Woods,Klahanie,Issaquah,King County,Washington,United States of America,us,,98029,,,,,,,,,
18114,60th Place Northeast,,Moorlands,,King County,Washington,United States of America,us,Kenmore,98028,,,,,,,,,
14578,31st Avenue Northeast,,Briarcrest,,King County,Washington,United States of America,us,Shoreline,98155,,Kenwood,,,,,,,
6601,Northeast 153rd Place,,Moorlands,,King County,Washington,United States of America,us,Kenmore,98028,,,,,,,,,
,Southeast 62nd Street,,May Creek,,King County,Washington,United States of America,us,Mercer Island,98040,,,,,,,,,
6530,Northeast 129th Street,,Lake Park,Kirkland,King County,Washington,United States of America,us,,98034,,,,,,,,,
11245,12th Avenue Southwest,,,Burien,King County,Washington,United States of America,us,,98146,White Center,Mount View,,,,,,,
436,South 191st Place,,McVan,Burien,King County,Washington,United States of America,us,,98148,,,,,,,,,
13512,423rd Avenue Southeast,,Harman Heights,,King County,Washington,United States of America,us,,98045,,,,,,,,,
1605,South 245th Place,,,Des Moines,King County,Washington,United States of America,us,,98198,,Zenith,,,,,,,
2811,92nd Place Northeast,,,,King County,Washington,United States of America,us,,98004,,,,,,Clyde Hill,,,
8033,44th Avenue Northeast,,,,King County,Washington,United States of America,us,Seattle,98115,Wedgwood,View Ridge,,,,,,,
3248,107th Avenue Southeast,,,,King County,Washington,United States of America,us,Bellevue,98004,,,,,,,,,
10218,Aqua Way South,,,,King County,Washington,United States of America,us,,98168,White Center,,,,,,,,
5765,25th Avenue Northeast,,,,King County,Washington,United States of America,us,Seattle,98105,University District,Ravenna,,,,,,,
328,16th Avenue,,,,King County,Washington,United States of America,us,Seattle,98122,Central District,Little Saigon,,,,,,,
35839,14th Avenue Southwest,,Fife Heights,Federal Way,King County,Washington,United States of America,us,,98023,,Northeast Tacoma,,,,,,,
,,,Spring Glen,Snoqualmie,King County,Washington,United States of America,us,,98024,,,,,,,,,
18329,Southeast 247th Street,,Timberlane,,King County,Washington,United States of America,us,Covington,98042,,Covington Woods,,,,,,,
14073,Northeast 62nd Street,Tamaric Ridge,Earlmont,Redmond,King County,Washington,United States of America,us,,98052,,,,,,,,,
1033,South 316th Street,,,Federal Way,King County,Washington,United States of America,us,,98003,,,,,,,,,
13717,Odell Road Northeast,,Stillwater,,King County,Washington,United States of America,us,,98019,,,,,,,,,
1018,South 23rd Street,,Benson Hill,,King County,Washington,United States of America,us,Renton,98055,,Victoria Hills,,,,,,,
7709,13th Avenue Northwest,,Blue Ridge,,King County,Washington,United States of America,us,Seattle,98117,,Whittier Heights,,,,,,,
31611,37th Avenue Southwest,,Dash Point,Federal Way,King County,Washington,United States of America,us,,98023,,Twin Lakes,,,,,,,
2308,South 288th Place,,,Federal Way,King County,Washington,United States of America,us,,98003,West Hill,,,,,,,,
,Stone Avenue North,,Bitter Lake,,King County,Washington,United States of America,us,Seattle,98133,,Licton Springs,,,,,,,
10646,Sand Point Way Northeast,,Inverness,,King County,Washington,United States of America,us,Seattle,98125,,Lavilla,,,,,,,
23465,Southeast 54th Place,,,Issaquah,King County,Washington,United States of America,us,,98029,,,,,,,,,
40967,Southeast 65th Street,,Snoqualmie Falls,,King County,Washington,United States of America,us,,98065,,,,,,,,,
4700,South 295th Place,,,,King County,Washington,United States of America,us,,98001,West Hill,Wyngates,Lakeland North,,,,,,
5333,South Star Lake Road,,Meredith,,King County,Washington,United States of America,us,,98001,,Wyngates,Lakeland North,,,,,,
10607,2nd Place Southwest,,,,King County,Washington,United States of America,us,,98146,White Center,,,,,,,,
1111,17th Street Northeast,,,,King County,Washington,United States of America,us,Auburn,98002,Rivers Bend,,,,,,,,
9534,227th Way Northeast,,,Union Hill-Novelty Hill,King County,Washington,United States of America,us,,98053,Redmond Ridge,,,,,,,,
415,Pasco Place Northeast,,Coal Creek,,King County,Washington,United States of America,us,Renton,98059,,Windwood,,,,,,,
18865,108th Avenue Southeast,,Benson Hill,,King County,Washington,United States of America,us,Renton,98055,,Victoria Hills,,,,,,,
14712,Simonds Road Northeast,Villa Juanita,Moorlands,,King County,Washington,United States of America,us,Bothell,98011,,,,,,,,,
1011,North 29th Street,,Kennydale,,King County,Washington,United States of America,us,Renton,98056,,Kennydale,,,,,,,
7349,16th Avenue Northeast,,,,King County,Washington,United States of America,us,Seattle,98115,Green Lake,,,,,,,,
4733,Delridge Way Southwest,,,,King County,Washington,United States of America,us,Seattle,98106,Delridge,Youngstown,,,,,,,
128,Blueberry Southwest Court,,Benroy,,King County,Washington,United States of America,us,Pacific,98047,,,,,,,,,
14802,Wallingford Avenue North,,Evergreen,,King County,Washington,United States of America,us,Shoreline,98133,,Meridian Park,,,,,,,
6834,Northeast 153rd Place,,Moorlands,,King County,Washington,United States of America,us,Kenmore,98028,,,,,,,,,
9215,37th Avenue South,,,,King County,Washington,United States of America,us,Seattle,98118,Rainier Valley,,,,,,,,
10626,12th Avenue Southwest,,,,King County,Washington,United States of America,us,,98146,White Center,,,,,,,,
4839,Delridge Way Southwest,,,,King County,Washington,United States of America,us,Seattle,98106,Delridge,,,,,,,,
3738,Southwest Tillman Street,,Westwood,,King County,Washington,United States of America,us,Seattle,98126,,,,,,,,,
4037,South 159th Lane,,McMicken Heights,,King County,Washington,United States of America,us,Tukwila,98188,,,,,,,,,
,169th Place Southeast,,,,King County,Washington,United States of America,us,Bellevue,98006,,,,,,,,,
539,98th Avenue Northeast,,,,King County,Washington,United States of America,us,Bellevue,98004,,Clyde,,,,,,,
3474,Wells Avenue South,,Benson Hill,,King County,Washington,United States of America,us,Renton,98055,,Winsper,,,,,,,
10328,12th Avenue Northwest,,Blue Ridge,,King County,Washington,United States of America,us,Seattle,98177,,Crown Hill,,,,,,,
2008,Yale Avenue East,,,,King County,Washington,United States of America,us,Seattle,98102,,Eastlake,,,,,,,
,Southeast 10th Street,,Harman Heights,North Bend,King County,Washington,United States of America,us,,98045,,,,,,,,,
483,Lingering Pine Drive Northwest,Talus,Pine Lake,Issaquah,King County,Washington,United States of America,us,,98027,,,,,,,,,
814,Northwest 52nd Street,,,,King County,Washington,United States of America,us,Seattle,98107,Phinney Ridge,,,,,,,,
16224,11th Avenue Northeast,,Ridgecrest,,King County,Washington,United States of America,us,Shoreline,98155,,North City,,,,,,,
3530,43rd Avenue West,,,,King County,Washington,United States of America,us,Seattle,98199,Magnolia,Carleton Park,,,,,,,
110,Northwest 101st Street,,,,King County,Washington,United States of America,us,Seattle,98177,Greenwood,,,,,,,,
37802,26th Drive South,,,,King County,Washington,United States of America,us,,98003,,,Lakeland South,,,,,,
7608,56th Place Northeast,,Inverness,,King County,Washington,United States of America,us,Seattle,98115,,Sand Point,,,,,,,
6311,28th Avenue Northwest,,,,King County,Washington,United States of America,us,Seattle,98107,Ballard,Sunset Hill,,,,,,,
30236,38th Place South,,,,King County,Washington,United States of America,us,,98001,West Hill,,Lakeland North,,,,,,
27700,215th Place Southeast,,Cherokee Bay Park,Maple Valley,King County,Washington,United States of America,us,,98038,,Eastwood Forest,,,,,,,
27820,108th Avenue Southeast,,,,King County,Washington,United States of America,us,Kent,98030,,Erin Glade,Lea Hill,,,,,,
2427,Northwest 57th Street,,Seaview,,King County,Washington,United States of America,us,Seattle,98107,,Sunset Hill,,,,,,,
1834,Northeast 168th Street,,Ridgecrest,,King County,Washington,United States of America,us,Shoreline,98155,,North City,,,,,,,
7317,Vashon Place Southwest,,Fauntleroy,,King County,Washington,United States of America,us,Seattle,98136,,,,,,,,,
4807,53rd Avenue South,,,,King County,Washington,United States of America,us,Seattle,98118,Rainier Valley,Lakewood,,,,,,,
15069,Northeast 204th Street,,Woodinville Junction,,King County,Washington,United States of America,us,Woodinville,98072,,,,,,,,,
820,1st Street,,,Kirkland,King County,Washington,United States of America,us,,98033,Juanita,,,,,,,,
3605,45th Avenue Southwest,,,,King County,Washington,United States of America,us,Seattle,98116,West Seattle,Admiral,,,,,,,
16763,2nd Avenue Northeast,,Ridgecrest,,King County,Washington,United States of America,us,Shoreline,98155,,North City,,,,,,,
17010,Northeast 104th Court,,Avondale,Redmond,King County,Washington,United States of America,us,,98052,,Education Hill,,,,,,,
8200,120th Place Southeast,,Newport Hills,,King County,Washington,United States of America,us,Newcastle,98056,,Olympus,,,,,,,
12006,Northeast 138th Place,,Kingsgate,Kirkland,King County,Washington,United States of America,us,,98034,,,,,,,,,
9722,4th Avenue Northwest,,,,King County,Washington,United States of America,us,Seattle,98117,Greenwood,Crown Hill,,,,,,,
1290,6th Street West,,,Kirkland,King County,Washington,United States of America,us,,98033,Juanita,,,,,,,,
8709,Southeast 79th Street,,Kennydale,,King County,Washington,United States of America,us,Mercer Island,98040,,,,,,,,,
16638,Southeast 167th Avenue,,,,King County,Washington,United States of America,us,,98058,,Woodside,Fairwood,,,,,,
9301,Southeast Shoreland Drive,,,,King County,Washington,United States of America,us,Bellevue,98004,,Moorland,,,,,,,
12318,Southeast 219th Place,,East Hill,,King County,Washington,United States of America,us,Kent,98031,,Hillshire Terrace,,,,,,,
9409,South 241st Street,,East Hill,,King County,Washington,United States of America,us,Kent,98030,,,,,,,,,
12023,28th Avenue Northeast,,,,King County,Washington,United States of America,us,Seattle,98125,Lake City,Kenwood,,,,,,,
10405,Southeast 206th Place,,East Hill,,King County,Washington,United States of America,us,Kent,98031,,Stonepine,,,,,,,
16126,Southeast 258th Street,,Meridian Heights,,King County,Washington,United States of America,us,Covington,98042,,Fairfield,,,,,,,
10429,114th Place Northeast,,Firloch,Kirkland,King County,Washington,United States of America,us,,98033,,,,,,,,,
1102,Southwest 341st Street,Wynstone,,Federal Way,King County,Washington,United States of America,us,,98023,,,,,,,,,
10101,Fremont Avenue North,,,,King County,Washington,United States of America,us,Seattle,98133,Greenwood,Licton Springs,,,,,,,
18029,24th Avenue Northeast,,Sheridan Beach,,King County,Washington,United States of America,us,Shoreline,98155,,North City,,,,,,,
2607,Shattuck Court South,,Benson Hill,,King County,Washington,United States of America,us,Renton,98055,,Victoria Park,,,,,,,
12714,179th Avenue Northeast,Morning Meadows,Avondale,,King County,Washington,United States of America,us,,98052-2866,,,Cottage Lake,,,,,,
718,North 94th Street,,,,King County,Washington,United States of America,us,Seattle,98103,Greenwood,Licton Springs,,,,,,,
2237,Northeast 9th Place,,Inglewood,,King County,Washington,United States of America,us,Sammamish,98074,,,,,,,,,
,Sycamore Access Trail,,,Issaquah,King County,Washington,United States of America,us,,98029,,Sycamore,,,,,,,
12642,87th Place Northeast,,Finn Hill,Kirkland,King County,Washington,United States of America,us,,98034,,,,,,,,,
744,North 78th Street,,,,King County,Washington,United States of America,us,Seattle,98103,Greenwood,Licton Springs,,,,,,,
8320,10th Avenue South,,,,King County,Washington,United States of America,us,Seattle,98108,Georgetown,South Park,,,,,,,
2500,Southwest Graham Street,,,,King County,Washington,United States of America,us,Seattle,98106,Delridge,,,,,,,,
18398,Northeast 199th Place,,Cottage Lake,,King County,Washington,United States of America,us,,98077,,,Cottage Lake,,,,,,
2429,South 142nd Street,,Riverton Heights,SeaTac,King County,Washington,United States of America,us,,98168,,,,,,,,,
27010,104th Avenue Southeast,,East Hill,,King County,Washington,United States of America,us,Kent,98030,,Erin Glade,,,,,,,
9330,52nd Avenue South,,,,King County,Washington,United States of America,us,Seattle,98118,Rainier Valley,Rainier Beach,,,,,,,
927,North 97th Street,,,,King County,Washington,United States of America,us,Seattle,98103,Greenwood,Licton Springs,,,,,,,
36907,17th Avenue South,,,Federal Way,King County,Washington,United States of America,us,,98003,,,,,,,,,
8202,Northeast 141st Street,,Inglewood,Kirkland,King County,Washington,United States of America,us,,98034,,Simonds Estates,,,,,,,
46910,228th Avenue Southeast,,Osceola,,King County,Washington,United States of America,us,,98022,,Glacier Vista,,,,,,,
14213,Southeast 170th Street,,,,King County,Washington,United States of America,us,,98058,Fairwood,Fairwood Greens,Fairwood,,,,,,
,Southeast 10th Street,,Klahanie,,King County,Washington,United States of America,us,Sammamish,,,,,,,,,,
9726,1st Avenue Northwest,,,,King County,Washington,United States of America,us,Seattle,98117,Greenwood,,,,,,,,
2015,Southwest 159th Street,,,Burien,King County,Washington,United States of America,us,,98166,,Gregory Heights,,,,,,,
16251,12th Avenue Southwest,,,Burien,King County,Washington,United States of America,us,,98166,,,,,,,,,
9532,Phinney Avenue North,,,,King County,Washington,United States of America,us,Seattle,98103,Greenwood,Licton Springs,,,,,,,
12738,10th Avenue Northwest,,,,King County,Washington,United States of America,us,Seattle,98177,Broadview,,,,,,,,
15009,119th Avenue Northeast,Queensgate,Kingsgate,Kirkland,King County,Washington,United States of America,us,,98034,,,,,,,,,
6325,South 126th Place,,Skyway,,King County,Washington,United States of America,us,,98178,,,Bryn Mawr-Skyway,,,,,,
11601,Southeast 45th Place,,Lake Heights,,King County,Washington,United States of America,us,Bellevue,98006,,,,,,,,,
6530,Latona Avenue Northeast,,,,King County,Washington,United States of America,us,Seattle,98115,Green Lake,,,,,,,,
1908,North 204th Place,,Echo Lake,,King County,Washington,United States of America,us,Shoreline,98133,,,,,,,,,
2237,North 178th Street,,Richmond Highlands,,King County,Washington,United States of America,us,Shoreline,98133,,Meridian Park,,,,,,,
,,Central Park,High Point,Issaquah,King County,Washington,United States of America,us,,98029,,,,,,,,,
32803,35th Avenue Southwest,,,Federal Way,King County,Washington,United States of America,us,,98023,,,,,,,,,
2315,38th Avenue East,,Canterbury,,King County,Washington,United States of America,us,Seattle,98112,,Edgewater Park,,,,,,,
8770,Southeast 48th Street,,Newport Shores,,King County,Washington,United States of America,us,Mercer Island,98040,,,,,,,,,
7625,8th Avenue Southwest,,,,King County,Washington,United States of America,us,Seattle,98106,Georgetown,Highland Park,,,,,,,
14643,164th Avenue Northeast,,Hollywood Hill,,King County,Washington,United States of America,us,,98072,,,Cottage Lake,,,,,,
3510,South 262nd Street,,Meredith,,King County,Washington,United States of America,us,Kent,98032,,,,,,,,,
4295,South 137th Street,,Foster,,King County,Washington,United States of America,us,Tukwila,98168,,,,,,,,,
2557,62nd Avenue Southeast,,,,King County,Washington,United States of America,us,Mercer Island,98040,Mount Baker,McGilvra,,,,,,,
2813,Morris Avenue South,,Benson Hill,,King County,Washington,United States of America,us,Renton,98055,,Victoria Park,,,,,,,
440,East Guiberson Street,,East Hill,,King County,Washington,United States of America,us,Kent,98031,,,,,,,,,
24435,11th Avenue South,,,Des Moines,King County,Washington,United States of America,us,,98198,,Zenith,,,,,,,
2845,South Juneau Street,,,,King County,Washington,United States of America,us,Seattle,98108,Rainier Valley,,,,,,,,
2515,Northeast 70th Street,,,,King County,Washington,United States of America,us,Seattle,98115,University District,Ravenna,,,,,,,
728,14th Avenue,,,,King County,Washington,United States of America,us,Seattle,98122,Central District,,,,,,,,
,,,Echo Lake,,King County,Washington,United States of America,us,Shoreline,98020,,,,,,,,,
14112,119th Avenue Northeast,,Kingsgate,Kirkland,King County,Washington,United States of America,us,,98034,,,,,,,,,
4026,Williams Avenue West,,,,King County,Washington,United States of America,us,Seattle,98199,Magnolia,Lawton Park,,,,,,,
6744,Alonzo Avenue Northwest,,,,King County,Washington,United States of America,us,Seattle,98117,Ballard,Whittier Heights,,,,,,,
14099,Southeast 49th Place,,,,King County,Washington,United States of America,us,Bellevue,98006,,,,,,,,,
30271,129th Avenue Southeast,,,,King County,Washington,United States of America,us,Auburn,98092,,,Lea Hill,,,,,,
15698,Northeast 110th Street,,Earlmont,Redmond,King County,Washington,United States of America,us,,98052,,Education Hill,,,,,,,
1733,30th Avenue South,,,,King County,Washington,United States of America,us,Seattle,98144,Leschi,,,,,,,,
,Southeast Newport Way,,Cougar Hills,,King County,Washington,United States of America,us,Bellevue,99007,,,,,,,,,
3292,Northeast Larkspur Lane,Logan Park,High Point,Issaquah,King County,Washington,United States of America,us,,98029,,,,,,,,,
4018,Northeast 6th Court,,Kennydale,,King County,Washington,United States of America,us,Renton,98056,,President Park,,,,,,,
22241,Dorre Don Way Southeast,,Dorre Don,Hobart,King County,Washington,United States of America,us,,98038,,The Highlands of Cedar River,,,,,,,
9703,Northeast 128th Street,,Finn Hill,Kirkland,King County,Washington,United States of America,us,,98034,,Maple Glen,,,,,,,
304,31st Street Southeast,,,,King County,Washington,United States of America,us,Auburn,98002,Forrest Villa,,,,,,,,
7032,37th Avenue Northeast,,Inverness,,King County,Washington,United States of America,us,Seattle,98115,,Ravenna,,,,,,,
12723,22nd Avenue Northeast,,,,King County,Washington,United States of America,us,Seattle,98125,Lake City,Kenwood,,,,,,,
7341,20th Avenue Northeast,,,,King County,Washington,United States of America,us,Seattle,98115,University District,Ravenna,,,,,,,
30515,1st Place Southwest,,,Federal Way,King County,Washington,United States of America,us,,98023,,Mirror Lake,,,,,,,
26209,233rd Court Southeast,,Danville,Maple Valley,King County,Washington,United States of America,us,,98038,,Fernwood Estates,,,,,,,
3848,43rd Avenue Northeast,,Canterbury,,King County,Washington,United States of America,us,Seattle,98105,,Laurelhurst,,,,,,,
1807,North 163rd Street,,Ronald,,King County,Washington,United States of America,us,Shoreline,98133,,Meridian Park,,,,,,,
4246,249th Court Southeast,Madison Place,Klahanie,,King County,Washington,United States of America,us,Sammamish,98029,,,,,,,,,
12967,Southeast 288th Place,,,,King County,Washington,United States of America,us,Auburn,98092,,,Lea Hill,,,,,,
1628,South 261st Place,,,Des Moines,King County,Washington,United States of America,us,,98198,,Woodmont,,,,,,,
748 1/2,2nd Avenue North,,East Hill,,King County,Washington,United States of America,us,Kent,98032,,Downtown,,,,,,,
2252,Northwest 62nd Street,,,,King County,Washington,United States of America,us,Seattle,98107,Ballard,Sunset Hill,,,,,The Paradise,,
5201,23rd Avenue Southwest,,,,King County,Washington,United States of America,us,Seattle,98106,Delridge,,,,,,,,
3149,35th Avenue South,,,,King County,Washington,United States of America,us,Seattle,98144,Mount Baker,,,,,,,,
25418,30th Avenue South,,,,King County,Washington,United States of America,us,Kent,98032,,,,,,,,,
14616,Southeast 181st Street,,,,King County,Washington,United States of America,us,,98058,Fairwood,,Fairwood,,,,,,
,Redmond Way,,Earlmont,Redmond,King County,Washington,United States of America,us,,98052-4176,,,,,,,,,
5956,38th Avenue Southwest,,Westwood,,King County,Washington,United States of America,us,Seattle,98126,,High Point,,,,,,,
21149,32nd Avenue South,,McVan,SeaTac,King County,Washington,United States of America,us,,98198,,,,,,,,,
19215,58th Avenue Northeast,,Moorlands,,King County,Washington,United States of America,us,Kenmore,98028,,,,,,,,,
4406,Dayton Avenue North,,,,King County,Washington,United States of America,us,Seattle,98103,Fremont,,,,,,,,
2530,30th Avenue South,,,,King County,Washington,United States of America,us,Seattle,98144,Mount Baker,Columbia City,,,,,,,
22212,123rd Place Southeast,,East Hill,,King County,Washington,United States of America,us,Kent,98031,,Hillshire Terrace,,,,,,,
105,Kensington Avenue South,,East Hill,,King County,Washington,United States of America,us,Kent,98030,,,,,,,,,
2007,Boylston Avenue East,,,,King County,Washington,United States of America,us,Seattle,98102,,Eastlake,,,,,,,
420,Van de Vanter Avenue,,East Hill,,King County,Washington,United States of America,us,Kent,98030,,,,,,,,,
3506,South Morgan Street,,,,King County,Washington,United States of America,us,Seattle,98118,Rainier Valley,Holly Park,,,,,,,
16820,121st Avenue Southeast,,,,King County,Washington,United States of America,us,Renton,98058,,,,,,,,,
6701,127th Place Southeast,,,,King County,Washington,United States of America,us,Bellevue,98006,,,,,,,,,
21598,Southeast 3rd Place,,Inglewood,,King County,Washington,United States of America,us,Sammamish,98074,,,,,,,,,
340,Northwest 137th Street,,,,King County,Washington,United States of America,us,Seattle,98177,Broadview,,,,,,,,
25923,13th Place South,,,Des Moines,King County,Washington,United States of America,us,,98198,,Woodmont,,,,,,,
8000,46th Avenue Southwest,,Fauntleroy,,King County,Washington,United States of America,us,Seattle,98136,,,,,,,,,
929,104th Avenue Southeast,,,,King County,Washington,United States of America,us,Bellevue,98004,,,,,,,,,
16833,142nd Avenue Southeast,,,,King County,Washington,United States of America,us,,98058,Fairwood,Fairwood Greens,Fairwood,,,,,,
29325,132nd Avenue Southeast,,,,King County,Washington,United States of America,us,Auburn,98092,,,Lea Hill,,,,,,
1833,1st Avenue North,,,,King County,Washington,United States of America,us,Seattle,98109,Queen Anne,,,,,,,,
703,South 313th Street,,,Federal Way,King County,Washington,United States of America,us,,98003,,,,,,,,,
3475,Wynalda Drive,,Boise,Enumclaw,King County,Washington,United States of America,us,,98022,,Glacier Vista,,,,,,,
120,Northwest 49th Street,,,,King County,Washington,United States of America,us,Seattle,98107,Phinney Ridge,,,,,,,,
7642,Northeast 12th Street,,,,King County,Washington,United States of America,us,Medina,98039,,,,,,,,,
19314,Southeast 47th Street,,Vasa Park,Issaquah,King County,Washington,United States of America,us,,98027,,,,,,,,,
17499,427th Avenue Southeast,,Cedar Falls,,King County,Washington,United States of America,us,,98045,,Wilderness Rim,,,,,,,
7020,44th Avenue South,,,,King County,Washington,United States of America,us,Seattle,98118,Rainier Valley,Brighton,,,,,,,
6123,South 125th Street,,Skyway,,King County,Washington,United States of America,us,,98178,,,Bryn Mawr-Skyway,,,,,,
23211,114th Way Southeast,,East Hill,,King County,Washington,United States of America,us,Kent,98031,,,,,,,,,
9330,228th Way Northeast,,,Union Hill-Novelty Hill,King County,Washington,United States of America,us,,98053,Redmond Ridge,,,,,,,,
12711,Southeast 301st Street,,,,King County,Washington,United States of America,us,Auburn,98092,,,Lea Hill,,,,,,
17823,Northeast 33rd Street,,Kenilworth,Redmond,King County,Washington,United States of America,us,,98052,,,,,,,,,
,27th Avenue Northeast,,Briarcrest,,King County,Washington,United States of America,us,Shoreline,98155,,North City,,,Grace Cole Nature Park,,,,
19313,140th Place Southeast,,,,King County,Washington,United States of America,us,,98058,,,East Hill-Meridian,,,,,,
4511,Preston Fall City Road Southeast,,Spring Glen,,King County,Washington,United States of America,us,,98024,,,Fall City,,,,,,
1925,Northeast 127th Street,,,,King County,Washington,United States of America,us,Seattle,98125,Lake City,Kenwood,,,,,,,
6012,27th Avenue Northeast,,,,King County,Washington,United States of America,us,Seattle,98115,University District,Ravenna,,,,,,,
276,164th Avenue Southeast,,Lake Hills,,King County,Washington,United States of America,us,Bellevue,98008,,,,,,,,,
26264,125th Place Southeast,,East Hill,,King County,Washington,United States of America,us,Kent,98030,,Seven Oaks East,,,,,,,
9108,2nd Avenue Northeast,,,,King County,Washington,United States of America,us,Seattle,98115,Maple Leaf,Licton Springs,,,,,,,
11737,Lakeside Avenue Northeast,,,,King County,Washington,United States of America,us,Seattle,98125,Lake City,Cedar Park,,,,,,,
28835,210th Avenue Southeast,,Cherokee Bay Park,,King County,Washington,United States of America,us,,98042,,,Lake Morton-Berrydale,,,,,,
26411,7th Place South,,,Des Moines,King County,Washington,United States of America,us,,98198,,Woodmont,,,,,,,
9846,Northeast 24th Street,,,,King County,Washington,United States of America,us,Bellevue,98004,,,,,,,,,
7322,18th Avenue Northwest,,Olympic Manor,,King County,Washington,United States of America,us,Seattle,98117,,Whittier Heights,,,,,,,
12528,240th Place Northeast,Palisades,,Union Hill-Novelty Hill,King County,Washington,United States of America,us,,98053,Trilogy,,,,,,,,
5615,Princeton Avenue Northeast,,Inverness,,King County,Washington,United States of America,us,Seattle,98105,,Hawthorne Hills,,,,,,,
1820,24th Avenue,,,,King County,Washington,United States of America,us,Seattle,98122,Madison Valley,,,,,,,,
570,North 181st Street,,Richmond Highlands,,King County,Washington,United States of America,us,Shoreline,98133,,,,,,,,,
15758,Southeast 50th Street,,,,King County,Washington,United States of America,us,Bellevue,98006,,,,,,,,,
640,Northwest 76th Street,,,,King County,Washington,United States of America,us,Seattle,98117,Greenwood,Whittier Heights,,,,,,,
20434,Southeast 192nd Street,,Cedar Grove,,King County,Washington,United States of America,us,,98058,,The Grove at Spring Lake,Maple Heights-Lake Desire,,,,,,
37800,Southeast 80th Street,,Snoqualmie Falls,,King County,Washington,United States of America,us,,98065,,Eagle Nest,,,,,,,
20101,137th Avenue Southeast,,,,King County,Washington,United States of America,us,,98042,,Forest Glen South,East Hill-Meridian,,,,,,
442,Southwest 183rd Street,,,,King County,Washington,United States of America,us,Normandy Park,98166,,,,,,,,,
306,North 138th Street,,Bitter Lake,,King County,Washington,United States of America,us,Seattle,98133,,,,,,,,,
10245,Eastridge Drive Northeast,,,Union Hill-Novelty Hill,King County,Washington,United States of America,us,,98053,Redmond Ridge East,,,,,,,,
,,,Rose Hill,Kirkland,King County,Washington,United States of America,us,,98033,,,,,,,,,
7261,East Mercer Way,,,,King County,Washington,United States of America,us,Mercer Island,98040,,,,,,,,,
4318,55th Avenue Northeast,,Canterbury,,King County,Washington,United States of America,us,Seattle,98105,,Laurelhurst,,,,,,,
3216,8th Avenue West,,,,King County,Washington,United States of America,us,Seattle,98119,Queen Anne,,,,,,,,
46608,Southeast 129th Street,,Tanner,,King County,Washington,United States of America,us,,98045,,,,,,,,,
26209,233rd Court Southeast,,Danville,Maple Valley,King County,Washington,United States of America,us,,98038,,Fernwood Estates,,,,,,,
33002,Northeast 24th Street,,Pleasant Hill,,King County,Washington,United States of America,us,,98014,,,,,,,,,
1316,222nd Place Northeast,,Inglewood,,King County,Washington,United States of America,us,Sammamish,98074,,,,,,,,,
32214,Sunny Lane,,Morganville,,King County,Washington,United States of America,us,Black Diamond,98010,,The Ridge at Lake Sawyer,,,,,,,
26255,124th Avenue Southeast,,East Hill,,King County,Washington,United States of America,us,Kent,98030,,Seven Oaks East,,,,,,,
,Sunrise Loop Trail,Sunrise,,Union Hill-Novelty Hill,King County,Washington,United States of America,us,,98091,Trilogy,,,,,,,,
,12th Avenue Northeast,,Ridgecrest,,King County,Washington,United States of America,us,Shoreline,98155,,North City,,Anderson House,,,,,
399,146th Place Northeast,,,,King County,Washington,United States of America,us,Bellevue,98007,,,,,,,,,
826,Northeast 97th Street,,,,King County,Washington,United States of America,us,Seattle,98115,Maple Leaf,Licton Springs,,,,,,,
7517,31st Avenue Northwest,,North Beach,,King County,Washington,United States of America,us,Seattle,98117,,Loyal Heights,,,,,,,
5590,South Langston Road,,Skyway,,King County,Washington,United States of America,us,,98178,,,Bryn Mawr-Skyway,,,,,,
13549,Wallingford Avenue North,,,,King County,Washington,United States of America,us,Seattle,98133,Haller Lake,,,,,,,,
12300,461st Avenue Southeast,,Tanner,,King County,Washington,United States of America,us,,98045,,,,,,,,,
3801,202nd Place Southeast,,Pine Lake,,King County,Washington,United States of America,us,Sammamish,98075,,,,,,,,,
3741,Belvidere Avenue Southwest,,,,King County,Washington,United States of America,us,Seattle,98126,West Seattle,Admiral,,,,,,,
7454,Northeast 120th Place,,Lake Park,Kirkland,King County,Washington,United States of America,us,,98034,,,,,,,,,
3056,Southwest Manning Street,,,,King County,Washington,United States of America,us,Seattle,98126,West Seattle,Admiral,,,,,,,
7548,11th Avenue Northwest,,Blue Ridge,,King County,Washington,United States of America,us,Seattle,98117,,Whittier Heights,,,,,,,
19628,Southeast 259th Street,,Timberlane,,King County,Washington,United States of America,us,Covington,98042,,Covington Woods,,,,,,,
24599,Southeast 3rd Court,,Klahanie,,King County,Washington,United States of America,us,Sammamish,98074,,,,,,,,,
419,25th Avenue East,,,,King County,Washington,United States of America,us,Seattle,98112,Madison Valley,Montlake,,,,,,,
16828,166th Place Southeast,,,,King County,Washington,United States of America,us,,98058,,Woodside,Fairwood,,,,,,
10804,Southeast 218th Street,,East Hill,,King County,Washington,United States of America,us,Kent,98031,,Stonepine,,,,,,,
8818,20th Avenue Southwest,,,,King County,Washington,United States of America,us,Seattle,98106,White Center,Highland Park,,,,,,,
4615,South Snoqualmie Street,,,,King County,Washington,United States of America,us,Seattle,98118,Rainier Valley,Columbia,,,,,,,
13017,Northeast 202nd Place,,Woodinville Junction,,King County,Washington,United States of America,us,Woodinville,98072,,North Creek,,,,,,,
12273,15th Avenue Southwest,,Arbor Heights,Burien,King County,Washington,United States of America,us,,98146,,Mount View,,,,,,,
880,16th Avenue West,,,Kirkland,King County,Washington,United States of America,us,,98033,Juanita,,,,,,,,
742,North 73rd Street,,,,King County,Washington,United States of America,us,Seattle,98103,Greenwood,Licton Springs,,,,,,,
3703,40th Avenue Southwest,,,,King County,Washington,United States of America,us,Seattle,98116,West Seattle,Admiral,,,,,,,
5402,54th Street Southeast,,,,King County,Washington,United States of America,us,Auburn,98092,Lakeland Hills,,,,,,,,
10922,171st Place Northeast,,Avondale,Redmond,King County,Washington,United States of America,us,,98052,,Education Hill,,,,,,,
8421,8th Avenue Southwest,,,,King County,Washington,United States of America,us,Seattle,98106,Georgetown,Highland Park,,,,,,,
7156,35th Avenue Southwest,,Westwood,,King County,Washington,United States of America,us,Seattle,98126,,High Point,,,,,,,
1507,South 250th Street,,,Des Moines,King County,Washington,United States of America,us,,98198,,Zenith,,,,,,,
17634,162nd Place Southeast,,,,King County,Washington,United States of America,us,,98058,,Fairwood Greens,Fairwood,,,,,,
2354,Northeast 165th Street,,Briarcrest,,King County,Washington,United States of America,us,Shoreline,98155,,North City,,,,,,,
110,Smith Street,,,,King County,Washington,United States of America,us,Seattle,98109,Queen Anne,,,,,,,,
11847,68th Avenue South,,Skyway,,King County,Washington,United States of America,us,,98178,,,Bryn Mawr-Skyway,,,,,,
2625,Northeast 20th Street,,Kennydale,,King County,Washington,United States of America,us,Renton,98056,,Kennydale,,,,,,,
343,Northwest Boulder Place,Talus,Pine Lake,Issaquah,King County,Washington,United States of America,us,,98027,,,,,,,,,
9212,Northeast 142nd Street,,Inglewood,Kirkland,King County,Washington,United States of America,us,,98034,,Simonds Estates,,,,,,,
907,167th Avenue Northeast,,Crossroads,,King County,Washington,United States of America,us,Bellevue,98008,,,,,,,,,
264,165th Avenue Southeast,,Lake Hills,,King County,Washington,United States of America,us,Bellevue,98008,,,,,,,,,
13994,Northeast 32nd Place,Center Green,,,King County,Washington,United States of America,us,Bellevue,98005,,,,,,,,,
1933,48th Avenue Southwest,,,,King County,Washington,United States of America,us,Seattle,98116,West Seattle,Admiral,,,,,,,
6508,102nd Avenue Northeast,,Rose Hill,Kirkland,King County,Washington,United States of America,us,,98033,,Houghton,,,,,,,
19989,Southeast 259th Court,,Timberlane,,King County,Washington,United States of America,us,Covington,98042,,Shire Hills,,,,,,,
34520,27th Avenue Southwest,,,Federal Way,King County,Washington,United States of America,us,,98023,,,,,,,,,
12137,Northeast 106th Place,,Firloch,Kirkland,King County,Washington,United States of America,us,,98033,,,,,,,,,
1445,224th Avenue Northeast,,Inglewood,,King County,Washington,United States of America,us,Sammamish,98074,,,,,,,,,
38312,Southeast Northern Street,,Snoqualmie Falls,Snoqualmie,King County,Washington,United States of America,us,,98065,,Meadowbrook,,,,,,,
28815,44th Place South,,,,King County,Washington,United States of America,us,,98001,West Hill,Wyngates,Lakeland North,,,,,,
323,25th Avenue South,,,,King County,Washington,United States of America,us,Seattle,98144,Leschi,,,,,,Gideon-Mathews Gardens,,
,East Main Drive,,Klahanie,,King County,Washington,United States of America,us,Sammamish,98074,,,,,,,,,
1525,Monterey Avenue Northeast,,Kennydale,,King County,Washington,United States of America,us,Renton,98056,,Kennydale,,,,,,,
5709,Seaview Avenue Northwest,,Seaview,,King County,Washington,United States of America,us,Seattle,98107,,Sunset Hill,,,,,,,
8202,California Avenue Southwest,,Fauntleroy,,King County,Washington,United States of America,us,Seattle,98136,,,,,,,,,
,Snoqualmie Parkway,,Tokul,Snoqualmie,King County,Washington,United States of America,us,,98065,,Eagle Nest,,,The Club at Snoqualmie Ridge,,,,
11411,Northeast 103rd Street,,Firloch,Kirkland,King County,Washington,United States of America,us,,98033,,,,,,,,,
8452,Seward Park Avenue South,,,,King County,Washington,United States of America,us,Seattle,98118,Rainier Valley,Dunlap,,,,,,,
9757,Southeast 40th Street,,,,King County,Washington,United States of America,us,Mercer Island,98040,,,,,,,,,
16215,137th Place Southeast,,,,King County,Washington,United States of America,us,,98058,Fairwood,Fairwood West,Fairwood,,,,,,
2320,29th Avenue South,,,,King County,Washington,United States of America,us,Seattle,98144,Mount Baker,,,,,,,,
11719,Sand Point Way Northeast,,Inverness,,King County,Washington,United States of America,us,Seattle,98125,,Lavilla,,,,,,,
1538,3rd Street,,,Kirkland,King County,Washington,United States of America,us,,98033,Juanita,,,,,,,,
13009,230th Avenue Southeast,,Mirrormount Estates,,King County,Washington,United States of America,us,,98027,,Four Creeks,,,,,,,
12253,3rd Avenue Northwest,,,,King County,Washington,United States of America,us,Seattle,98177,Broadview,,,,,,,,
4106,Burke Avenue North,,,,King County,Washington,United States of America,us,Seattle,98103,Wallingford,Eastlake,,,,,,,
12935,76th Avenue Northeast,,Lake Park,Kirkland,King County,Washington,United States of America,us,,98034,,,,,,,,,
23251,Southeast 284th Street,,Henrys,Maple Valley,King County,Washington,United States of America,us,,98038,,Glacier Point,,,,,,,
3039,Northeast Larkspur Lane,Logan Park,High Point,Issaquah,King County,Washington,United States of America,us,,98029,,,,,,,,,
14742,Southeast 45th Place,,,,King County,Washington,United States of America,us,Bellevue,98006,Eastgate,,,,,,,,
8050,14th Avenue Northwest,,Olympic Manor,,King County,Washington,United States of America,us,Seattle,98117,,Whittier Heights,,,,,,,
9525,130th Avenue Northeast,,Rose Hill,Kirkland,King County,Washington,United States of America,us,,98033,,,,Mark Twain Elementary School,,,,,
2526,Northeast 135th Street,,,,King County,Washington,United States of America,us,Seattle,98125,Lake City,Kenwood,,,,,,,
24613,231st Avenue Southeast,,Wilderness Village,Maple Valley,King County,Washington,United States of America,us,,98038,,Highlands at Lake Wilderness,,,,,,,
1261,Southwest Orchard Street,,,,King County,Washington,United States of America,us,Seattle,98106,Delridge,,,,,,,,
25314,114th Avenue Southeast,,East Hill,,King County,Washington,United States of America,us,Kent,98030,,Fox Creek,,,,,,,
12068,Lakeside Place Northeast,,,,King County,Washington,United States of America,us,Seattle,98125,Lake City,Cedar Park,,,,,,,
4068,96th Avenue Southeast,,Newport Shores,,King County,Washington,United States of America,us,Mercer Island,98040,,Fortuna,,,,,,,
12419,20th Avenue South,,Boulevard Park,Burien,King County,Washington,United States of America,us,,98168,,,,,,,,,
2582,129th Avenue Southeast,,,,King County,Washington,United States of America,us,Bellevue,98005,,Woodridge,,,,,,,
24521,Roberts Drive,,Morganville,,King County,Washington,United States of America,us,Black Diamond,98010,,Lawson Hill Estates,,,,,,,
4621,43rd Avenue South,,,,King County,Washington,United States of America,us,Seattle,98118,Rainier Valley,Columbia,,,,,,,
11017,3rd Avenue South,,,Burien,King County,Washington,United States of America,us,,98168,White Center,Beverly Park,,,,,,,
2465,East Madison Street,,,,King County,Washington,United States of America,us,Seattle,98112,Madison Valley,Montlake,,,,,,,
1534,32nd Avenue South,,,,King County,Washington,United States of America,us,Seattle,98144,Mount Baker,,,,,,,,
28310,Southeast 430th Street,,Veazie,,King County,Washington,United States of America,us,,98022,,,,,,,,,
3231,Northeast 91st Street,,,,King County,Washington,United States of America,us,Seattle,98115,Wedgwood,Wedgwood,,,,,,,
,Southeast 2nd Place,,Inglewood,,King County,Washington,United States of America,us,Sammamish,98074-3718,,,,,,,,,
803,South 31st Street,,Benson Hill,,King County,Washington,United States of America,us,Renton,98055,,Victoria Park,,,,,,,
1469,84th Avenue Northeast,,,,King County,Washington,United States of America,us,Medina,98039,,,,,,,,,
118,North 84th Street,,,,King County,Washington,United States of America,us,Seattle,98103,Greenwood,Licton Springs,,,,,,,
9038,32nd Avenue Southwest,,Westwood,,King County,Washington,United States of America,us,Seattle,98126,,High Point,,,,,,,
337,29th Avenue,,,,King County,Washington,United States of America,us,Seattle,98122,Madrona,,,,,,,,
16213,Northeast 29th Street,,,,King County,Washington,United States of America,us,Bellevue,98008,,Sherwood Forest,,,,,,,
7208,Douglas Avenue Southeast,,Spring Glen,Snoqualmie,King County,Washington,United States of America,us,,98065,,Crestview,,,,,,,
6058,5th Avenue Northeast,,,,King County,Washington,United States of America,us,Seattle,98115,Green Lake,Meridian,,,,,,,
12535,Southeast 15th Street,,,,King County,Washington,United States of America,us,Bellevue,98005,,Woodridge,,,,,,,
1116,30th Street Northeast,,Christopher,,King County,Washington,United States of America,us,Auburn,98002,,,,,,,,,
7558,46th Avenue Southwest,,Fauntleroy,,King County,Washington,United States of America,us,Seattle,98136,,,,,,,,,
11357,5th Avenue Southwest,,,,King County,Washington,United States of America,us,,98146,White Center,,,,,,,,
1159,Semanski Street,,Boise,Enumclaw,King County,Washington,United States of America,us,,98022,,,,,,,,,
2415,East Highland Drive,,,,King County,Washington,United States of America,us,Seattle,98112,Madison Valley,Montlake,,,,,,,
440,South 199th Street,,McVan,Des Moines,King County,Washington,United States of America,us,,98148,,North Hill,,,,,,,
24015,Witte Road Southeast,,Wilderness Village,Maple Valley,King County,Washington,United States of America,us,,98038,,,,,,,,,
33209,39th Avenue Southwest,,Dash Point,Federal Way,King County,Washington,United States of America,us,,98023,,,,,,,,,
4126,45th Avenue Southwest,,,,King County,Washington,United States of America,us,Seattle,98116,West Seattle,Admiral,,,,,,,
31606,45th Place Southwest,,Dash Point,Federal Way,King County,Washington,United States of America,us,,98023,,Twin Lakes,,,,,,,
7729,29th Avenue Northwest,,North Beach,,King County,Washington,United States of America,us,Seattle,98117,,Loyal Heights,,,,,,,
,129th Place Northeast,,Kingsgate,Kirkland,King County,Washington,United States of America,us,,98034-7114,,,,Kamiakin Junior High School,,,,,
7166,Curtis Drive Southeast,,Spring Glen,Snoqualmie,King County,Washington,United States of America,us,,98065,,Crestview,,,,,,,
12240,Southeast 233rd Street,,East Hill,,King County,Washington,United States of America,us,Kent,98031,,Kensington Heights,,,,,,,
27003,Southeast 13th Street,,Klahanie,,King County,Washington,United States of America,us,Sammamish,98075,,Tibbetts Station,,,,,,,
18705,80th Avenue Northeast,,Moorlands,,King County,Washington,United States of America,us,Kenmore,98028,,,,,,,,,
2133,North 62nd Street,,,,King County,Washington,United States of America,us,Seattle,98103,Green Lake,Meridian,,,,,,,
3085,113th Avenue Southeast,,,,King County,Washington,United States of America,us,Bellevue,98004,,,,,,,,,
1038,Southwest 152nd Street,,,Burien,King County,Washington,United States of America,us,,98166,,,,,,,,,
9335,Northeast 30th Street,,,,King County,Washington,United States of America,us,,98004,,,,,,Clyde Hill,,,
19420,Northeast 129th Way,Tuscany,White,Union Hill-Novelty Hill,King County,Washington,United States of America,us,,98077,,,,,,,,,
16338,Southeast 9th Street,,,,King County,Washington,United States of America,us,Bellevue,98008,,,,,,,,,
20208,106th Avenue Southeast,,East Hill,,King County,Washington,United States of America,us,Kent,98031,,Stonepine,,,,,,,
12589,Southeast 51st Street,,,,King County,Washington,United States of America,us,Bellevue,98006,,,,,,,,,
3029,30th Avenue West,,,,King County,Washington,United States of America,us,Seattle,98199,Magnolia,Lawton Park,,,,,,,
2617,Southwest 347th Street,,,Federal Way,King County,Washington,United States of America,us,,98023,,,,,,,,,
9812,159th Place Northeast,,Earlmont,Redmond,King County,Washington,United States of America,us,,98052,,Education Hill,,,,,,,
4023,Southwest Graham Street,,,,King County,Washington,United States of America,us,Seattle,98136,Delridge,Morgan Junction,,,,,,,
6028,49th Avenue Southwest,,,,King County,Washington,United States of America,us,Seattle,98136,West Seattle,Morgan Junction,,,,,,,
4159,14th Avenue South,,,,King County,Washington,United States of America,us,Seattle,98108,Beacon Hill,South Seattle,,,,,,,
2612,Whitworth Court South,,Benson Hill,,King County,Washington,United States of America,us,Renton,98055,,Victoria Park,,,,,,,
2192,192nd Avenue Southeast,,Mint Grove,,King County,Washington,United States of America,us,Sammamish,98075,,,,,,,,,
630,Timber Creek Drive Northwest,Talus,Pine Lake,Issaquah,King County,Washington,United States of America,us,,98027,,,,,,,,,
16812,123rd Avenue Southeast,,,,King County,Washington,United States of America,us,Renton,98058,,,,,,,,,
28609,227th Avenue Southeast,,Cherokee Bay Park,Maple Valley,King County,Washington,United States of America,us,,98038,,Elk Run,,,,,,,
17761,Northeast 24th Street,,Kenilworth,Redmond,King County,Washington,United States of America,us,,98052,,Bretton Wood,,,,,,,
1717,22nd Avenue South,,,,King County,Washington,United States of America,us,Seattle,98144,Beacon Hill,,,,,,,,
14659,Southeast 49th Street,,Hilltop,,King County,Washington,United States of America,us,Bellevue,98006,,,,,,,,,
522,Northeast 88th Street,,,,King County,Washington,United States of America,us,Seattle,98115,Maple Leaf,Licton Springs,,,,,,,
13337,Military Road South,,Riverton,,King County,Washington,United States of America,us,Tukwila,98168,,,,,,,,,
1018,East Republican Street,,,,King County,Washington,United States of America,us,Seattle,98102,Capitol Hill,South Lake Union,,,,,,,
17029,106th Avenue Southeast,,,,King County,Washington,United States of America,us,Renton,98055,,Victoria Hills,,,,,,,
26811,225th Place Southeast,,Cherokee Bay Park,Maple Valley,King County,Washington,United States of America,us,,98038,,Rock Creek Meadows,,,,,,,
14404,Southeast 204th Place,,Meridian Heights,,King County,Washington,United States of America,us,,98042,,,East Hill-Meridian,,,,,,
13205,173rd Avenue Southeast,,,,King County,Washington,United States of America,us,,98059,East Renton Highlands,,,,,,,,
618,K Street Southeast,,,,King County,Washington,United States of America,us,Auburn,98002,South Auburn,,,,,,,,
,Northeast 150th Street,,Paramount Park,,King County,Washington,United States of America,us,Shoreline,98155,,Kenwood,,,South Woods Park,,,,
15798,Northeast 157th Place,,Sheridan Beach,,King County,Washington,United States of America,us,Lake Forest Park,98155,,Kenwood,,,,,,,
2625,11th Avenue East,,,,King County,Washington,United States of America,us,Seattle,98102,,Portage Bay,,,,,,,
1850,Northeast 170th Street,,Ridgecrest,,King County,Washington,United States of America,us,Shoreline,98155,,North City,,,,,,,
17200,Northeast 156th Court,,Hollywood Hill,,King County,Washington,United States of America,us,,98072,,,Cottage Lake,,,,,,
3331,South 368th Place,,,,King County,Washington,United States of America,us,,98001,,,Lakeland South,,,,,,
1629,39th Avenue East,,,,King County,Washington,United States of America,us,Seattle,98112,Madison Park,Edgewater Park,,,,,,,
21521,Southeast 255th Court,,Wilderness,Maple Valley,King County,Washington,United States of America,us,,98038,,Cedar Downs,,,,,,,
209,141st Avenue Northeast,Whispering Glen,,,King County,Washington,United States of America,us,Bellevue,98007,,,,,,,,,
10633,Southeast 287th Street,,,,King County,Washington,United States of America,us,Auburn,98092,,Erin Glade,Lea Hill,,,,,,
19599,Richmond Beach Drive Northwest,,Richmond Beach,,King County,Washington,United States of America,us,Shoreline,98177,,,,,,,,,
523,240th Avenue Southeast,,Klahanie,,King County,Washington,United States of America,us,Sammamish,98074,,,,,,,,,
1517,31st Avenue South,,,,King County,Washington,United States of America,us,Seattle,98144,Leschi,,,,,,,,
1905,10th Avenue West,,,,King County,Washington,United States of America,us,Seattle,98119,Queen Anne,Interbay,,,,,,,
16410,122nd Place Northeast,,Woodinville Junction,,King County,Washington,United States of America,us,Bothell,98011,,North Creek,,,,,,,
14886,128th Avenue Northeast,,Woodinville Junction,,King County,Washington,United States of America,us,Woodinville,98072,,,,,,,,,
17850,Northeast 154th Street,,Cottage Lake,,King County,Washington,United States of America,us,,98072,,,Cottage Lake,,,,,,
9408,Northeast 121st Place,,,Kirkland,King County,Washington,United States of America,us,,98034,Juanita,,,,,,,,
17856,Northeast 131st Street,,White,,King County,Washington,United States of America,us,,98052,,,Cottage Lake,,,,,,
37621,39th Avenue South,,Benroy,,King County,Washington,United States of America,us,,98001,,Jovita,Lakeland South,,,,,,
2514,East Denny Way,,,,King County,Washington,United States of America,us,Seattle,98122,Madrona,,,,,,,,
32012,Northeast 55th Street,,Stillwater,,King County,Washington,United States of America,us,,98014,,,,,,,,,
13926,163rd Place Southeast,,,,King County,Washington,United States of America,us,Renton,98059,,,,,,,,,
14510,Tiger Mountain Road Southeast,,Mirrormont,,King County,Washington,United States of America,us,,98027,,,Mirrormont,,,,,,
7501,13th Avenue Southwest,,Westwood,,King County,Washington,United States of America,us,Seattle,98106,,Highland Park,,,,,,,
2619,Southwest 149th Place,,Arbor Heights,Burien,King County,Washington,United States of America,us,,98166,,Seahurst,,,,,,,
201,West Park Street,,Harman Heights,North Bend,King County,Washington,United States of America,us,,98045,,,,,,,,,
2100,211th Avenue Northeast,,Inglewood,,King County,Washington,United States of America,us,Sammamish,98074,,,,,,,,,
3309,West Elmore Street,,,,King County,Washington,United States of America,us,Seattle,98199,Magnolia,Lawton Park,,,,,,,
9239,Interlake Avenue North,,,,King County,Washington,United States of America,us,Seattle,98103,Greenwood,Licton Springs,,,,,,,
11807,Northeast 105th Court,,Firloch,Kirkland,King County,Washington,United States of America,us,,98033,,,,,,,,,
206,31st Avenue East,,,,King County,Washington,United States of America,us,Seattle,98112,Madrona,,,,,,,,
8322,11th Avenue Northwest,,Blue Ridge,,King County,Washington,United States of America,us,Seattle,98117,,Crown Hill,,,,,,,
123,Northwest 77th Street,,,,King County,Washington,United States of America,us,Seattle,98117,Greenwood,Whittier Heights,,,,,,,
1916,19th Avenue South,,,,King County,Washington,United States of America,us,Seattle,98144,Beacon Hill,,,,,,,,
12323,22nd Avenue Northeast,,,,King County,Washington,United States of America,us,Seattle,98125,Lake City,Kenwood,,,,,,,
764,North 188th Street,,Richmond Highlands,,King County,Washington,United States of America,us,Shoreline,98133,,,,,,,,,
20025,Southeast 206th Street,,Cedar Grove,,King County,Washington,United States of America,us,,98038,,The Grove at Spring Lake,,,,,,,
6549,12th Avenue Northwest,,,,King County,Washington,United States of America,us,Seattle,98117,Ballard,Whittier Heights,,,,,,,
20016,Northeast 177th Street,Cottage Glen,Cottage Lake,,King County,Washington,United States of America,us,,98077,,,Cottage Lake,,,,,,
3242,44th Avenue West,,,,King County,Washington,United States of America,us,Seattle,98199,Magnolia,Carleton Park,,,,,,,
3250,Northwest Esplanade,,North Beach,,King County,Washington,United States of America,us,Seattle,98117,,,,,,,,,
22899,Northeast 138th Court,Olympus,,Union Hill-Novelty Hill,King County,Washington,United States of America,us,,98053,Trilogy,,,,,,,,
3210,12th Avenue West,,,,King County,Washington,United States of America,us,Seattle,98119,Queen Anne,Interbay,,,,,,,
541,29th Avenue,,,,King County,Washington,United States of America,us,Seattle,98122,Madrona,,,,,,,,
2521,27th Avenue West,,Magnolia Village,,King County,Washington,United States of America,us,Seattle,98199,,,,,,,,,
523,Southwest 324th Street,,,Federal Way,King County,Washington,United States of America,us,,98023,,,,,,,,,
15416,Southeast Jones Road,,,,King County,Washington,United States of America,us,,98058,East Renton Highlands,,,,,,,,
2392,West Lake Sammamish Parkway Southeast,,Vasa Park,,King County,Washington,United States of America,us,Bellevue,98008,,Sammamish Heights,,,,,,,
11218,106th Avenue Northeast,,,Kirkland,King County,Washington,United States of America,us,,98033,Juanita,,,,,,,,
429,Farrelly Street,,,Enumclaw,King County,Washington,United States of America,us,,98022,,,,,,,,,
20477,137th Avenue Southeast,,,,King County,Washington,United States of America,us,,98042,,Forest Glen South,East Hill-Meridian,,,,,,
20386,Southeast 26th Street,,Mint Grove,,King County,Washington,United States of America,us,Sammamish,98075,,,,,,,,,
321,4th Street Northeast,,,,King County,Washington,United States of America,us,Auburn,98002,Downtown,,,,,,,,
2257,92nd Avenue Northeast,,,,King County,Washington,United States of America,us,,98004,,,,,,Clyde Hill,,,
9516,26th Avenue Northwest,,North Beach,,King County,Washington,United States of America,us,Seattle,98117,,,,,,,,,
2600,West Viewmont Way West,,Magnolia Village,,King County,Washington,United States of America,us,Seattle,98199,,Carleton Park,,,,,,,
6702,13th Avenue Northwest,,,,King County,Washington,United States of America,us,Seattle,98117,Ballard,Whittier Heights,,,,,,,
7803,376th Avenue Southeast,,Tokul,,King County,Washington,United States of America,us,,98065,,Eagle Nest,,,,,,,
7424,South 129th Street,,Black River Junction,,King County,Washington,United States of America,us,,98178,,,Bryn Mawr-Skyway,,,,,,
13322,Roosevelt Way Northeast,,,,King County,Washington,United States of America,us,Seattle,98125,Haller Lake,,,,,,,,
121,South 174th Street,,McVan,Burien,King County,Washington,United States of America,us,,98148,,,,,,,,,
822,West Barrett Street,,,,King County,Washington,United States of America,us,Seattle,98119,Queen Anne,Interbay,,,,,,,
12231,198th Avenue Northeast,Tuscany,Avondale,Union Hill-Novelty Hill,King County,Washington,United States of America,us,,98077,,,,,,,,,
9307,Northeast 32nd Street,,,,King County,Washington,United States of America,us,,98004,,,,,,Clyde Hill,,,
4213,42nd Street Northeast,,,,King County,Washington,United States of America,us,Auburn,98002,North Auburn,,,,,,,,
4008,Linden Avenue North,,,,King County,Washington,United States of America,us,Seattle,98103,Fremont,,,,,,,,
25031,235th Court Southeast,,Danville,Maple Valley,King County,Washington,United States of America,us,,98038,,Wilderness Hollow,,,,,,,
13448,Southeast 184th Street,,,,King County,Washington,United States of America,us,,98058,Fairwood,Forest Estates,Fairwood,,,,,,
8420,8th Avenue South,,,,King County,Washington,United States of America,us,Seattle,98108,Georgetown,South Park,,,,,,,
,282nd Court Northeast,Big Rock Ridge,Novelty,,King County,Washington,United States of America,us,Duvall,98019,,,,,,,,,
33029,Pacific Place,,Morganville,,King County,Washington,United States of America,us,Black Diamond,98010,,Lawson Hill Estates,,,,,,,
2215,Northwest Moraine Place,Talus,,Issaquah,King County,Washington,United States of America,us,,98027,,,,,,,,,
4321,Northeast 22nd Court,,Maplewood,,King County,Washington,United States of America,us,Renton,98059,,Glencoe,,,,,,,
5650,Fauntleroy Way Southwest,,,,King County,Washington,United States of America,us,Seattle,98136,Delridge,Morgan Junction,,,,,,,
17414,125th Avenue Southeast,,,,King County,Washington,United States of America,us,Renton,98058,,,,,,,,,
1931,6th Avenue West,,,,King County,Washington,United States of America,us,Seattle,98119,Queen Anne,,,,,,,,
5936,California Avenue Southwest,,,,King County,Washington,United States of America,us,Seattle,98136,West Seattle,Morgan Junction,,,,,,,
1012,Northeast 100th Street,,,,King County,Washington,United States of America,us,Seattle,98125,Maple Leaf,,,,,,,,
1072,88th Avenue Northeast,,,,King County,Washington,United States of America,us,Bellevue,98004,,,,,,,,,
7558,32nd Avenue Northwest,,Seaview,,King County,Washington,United States of America,us,Seattle,98117,,Sunset Hill,,,,,,,
22010,128th Place Southeast,,East Hill,,King County,Washington,United States of America,us,Kent,98031,,Hillshire Terrace,,,,,,,
17724,Southeast 58th Place,,,,King County,Washington,United States of America,us,Bellevue,98006,,,,,,,,,
12418,Northeast 100th Street,,Rose Hill,Kirkland,King County,Washington,United States of America,us,,98033,,,,,,,,,
,Southwest 216th Street,,Portage,Vashon,King County,Washington,United States of America,us,,98070,,Melchert,,,,,,,
26638,188th Avenue Southeast,,Timberlane,,King County,Washington,United States of America,us,Covington,98042,,Covington Woods,,,,,,,
1922,35th Avenue West,,Magnolia Village,,King County,Washington,United States of America,us,Seattle,98199,,Carleton Park,,,,,,,
2822,Lake Washington Boulevard North,,May Creek,,King County,Washington,United States of America,us,Renton,98056,,Clover Creek,,,,,,,
18416,172nd Court Southeast,The Parks,,,King County,Washington,United States of America,us,,98058,,,Maple Heights-Lake Desire,,,,,,
32322,18th Avenue Southwest,,,Federal Way,King County,Washington,United States of America,us,,98023,,,,,,,,,
13512,160th Avenue Southeast,,,,King County,Washington,United States of America,us,Renton,98059,East Renton Highlands,,,,,,,,
8852,Interlake Avenue North,,,,King County,Washington,United States of America,us,Seattle,98103,Greenwood,Licton Springs,,,,,,,
1918,Shelton Court Northeast,,Maplewood,,King County,Washington,United States of America,us,Renton,98056,,Glencoe,,,,,,,
1814,East Denny Way,,,,King County,Washington,United States of America,us,Seattle,98122,Capitol Hill,,,,,,,,
10719,Southeast 279th Street,,East Hill,,King County,Washington,United States of America,us,Kent,98030,,Erin Glade,,,,,,,
18270,240th Avenue Southeast,,Mirrormount Estates,,King County,Washington,United States of America,us,,98038,,Cedargrove Estates,Mirrormont,,,,,,
3938,Southwest 328th Place,,Dash Point,Federal Way,King County,Washington,United States of America,us,,98023,,Twin Lakes,,,,,,,
1601,East Alder Street,,,,King County,Washington,United States of America,us,Seattle,98122,Central District,Little Saigon,,,,,,,
8028,27th Avenue Northeast,,,,King County,Washington,United States of America,us,Seattle,98115,Wedgwood,Wedgwood,,,,,,,
19419,Military Road South,,McMicken Heights,SeaTac,King County,Washington,United States of America,us,,98188,,,,,,,,,
,Northeast Logan Street,LEO House,Klahanie,Issaquah,King County,Washington,United States of America,us,,98029,,,,,,,,,
8531,146th Place Southeast,,Coal Creek,,King County,Washington,United States of America,us,Newcastle,98059,,,,,,,,,
25035,Southeast Mirrormont Way,,Mirrormont,,King County,Washington,United States of America,us,,98027,,Mirrormont,Mirrormont,,,,,,
5413,Baker Avenue Northwest,,,,King County,Washington,United States of America,us,Seattle,98107,Phinney Ridge,,,,,,,,
5018,Northeast 41st Street,,Canterbury,,King County,Washington,United States of America,us,Seattle,98105,,Laurelhurst,,,,,,,
13830,133rd Place Northeast,,Kingsgate,Kirkland,King County,Washington,United States of America,us,,98034,,,,,,,,,
26605,Northeast 145th Street,,Novelty,,King County,Washington,United States of America,us,Duvall,98019,,,,,,,,,
22621,26th Avenue South,,,Des Moines,King County,Washington,United States of America,us,,98198,,Pacific Ridge,,,,,,,
7106,California Avenue Southwest,,Fauntleroy,,King County,Washington,United States of America,us,Seattle,98136,,Morgan Junction,,,,,,,
7327,47th Avenue Southwest,,Fauntleroy,,King County,Washington,United States of America,us,Seattle,98136,,,,,,,,,
169,241st Place Southeast,,Klahanie,,King County,Washington,United States of America,us,Sammamish,98074,,,,,,,,,
13503,131st Avenue Northeast,,Kingsgate,Kirkland,King County,Washington,United States of America,us,,98034,,,,,,,,,
12253,11th Avenue Northwest,,,,King County,Washington,United States of America,us,Seattle,98177,Broadview,,,,,,,,
7010,California Avenue Southwest,,Fauntleroy,,King County,Washington,United States of America,us,Seattle,98136,,Morgan Junction,,,,,,,
,,,Spring Glen,Snoqualmie,King County,Washington,United States of America,us,,98024,,,,,,,,,
28312,15th Avenue South,,,Federal Way,King County,Washington,United States of America,us,,98003,,Redondo Riviera,,,,,,,
4305,South Webster Street,,,,King County,Washington,United States of America,us,Seattle,98118,Rainier Valley,Dunlap,,,,,,,
12124,202nd Avenue Northeast,Tuscany,Avondale,Union Hill-Novelty Hill,King County,Washington,United States of America,us,,98077,,,,,,,,,
12492,231st Avenue Northeast,Cascades,,Union Hill-Novelty Hill,King County,Washington,United States of America,us,,98053,Trilogy,,,,,,,,
25712,18th Avenue South,,,Des Moines,King County,Washington,United States of America,us,,98198,,Woodmont,,,,,,,
23017,Southeast 281st Court,,Danville,Maple Valley,King County,Washington,United States of America,us,,98038,,Diamond Hills,,,,,,,
2112,222nd Place Northeast,,Inglewood,,King County,Washington,United States of America,us,Sammamish,98074,,,,,,,,,
3300,East Olive Street,,,,King County,Washington,United States of America,us,Seattle,98122,Madrona,,,,,,,,
12174,268th Drive Northeast,,Novelty,,King County,Washington,United States of America,us,,98019,,,,,,,,,
28143,240th Avenue Southeast,,Henrys,Maple Valley,King County,Washington,United States of America,us,,98038,,Glacier Trails,,,,,,,
12813,81st Avenue Northeast,,Finn Hill,Kirkland,King County,Washington,United States of America,us,,98034,,,,,,,,,
14143,37th Avenue South,,Riverton,,King County,Washington,United States of America,us,Tukwila,98168,,,,,,,,,
12718,21st Avenue South,,Latona,Burien,King County,Washington,United States of America,us,,98168,,,,,,,,,
425,15th Avenue East,,,,King County,Washington,United States of America,us,Seattle,98112,Capitol Hill,Montlake,,Ada's Technical Books and Cafe,,,,,
32416,10th Place South,,,Federal Way,King County,Washington,United States of America,us,,98003,,,,,,,,,
6709,7th Avenue Northwest,,,,King County,Washington,United States of America,us,Seattle,98117,Phinney Ridge,Whittier Heights,,,,,,,
3719,Bagley Avenue North,,,,King County,Washington,United States of America,us,Seattle,98015,Wallingford,Eastlake,,,,,,,
11748,Sand Point Way Northeast,,Inverness,,King County,Washington,United States of America,us,Seattle,98125,,Lavilla,,,,,,,
17076,Southeast 47th Court,,Cougar Hills,,King County,Washington,United States of America,us,Bellevue,98006,,,,,,,,,
21820,260th Avenue Southeast,,Tahoma,Hobart,King County,Washington,United States of America,us,,98038,,,,,,,,,
6133,111th Place Northeast,,Rose Hill,Kirkland,King County,Washington,United States of America,us,,98033,,,,,,,,,
6705,Flora Avenue South,,,,King County,Washington,United States of America,us,Seattle,98108,Georgetown,Van Asselt,,,,,,,
311,Northeast 57th Street,,,,King County,Washington,United States of America,us,Seattle,98105,Green Lake,Meridian,,,,,,,
4448,South Frontenac Street,,,,King County,Washington,United States of America,us,Seattle,98118,Rainier Valley,,,,,,,,
14235,Southeast 92nd Street,,Newport Hills,,King County,Washington,United States of America,us,Newcastle,98059,,Olympus,,,,,,,
5971,Rainier Avenue South,,,,King County,Washington,United States of America,us,Seattle,98118,Rainier Valley,Brighton,,,,,,,
17500,184th Avenue Northeast,,Cottage Lake,,King County,Washington,United States of America,us,,98072,,,Cottage Lake,,,,,,
25141,13th Avenue South,,,Des Moines,King County,Washington,United States of America,us,,98198,,Zenith,,,,,,,
23018,Southeast 267th Place,,Danville,Maple Valley,King County,Washington,United States of America,us,,98038,,Wilderness Estates,,,,,,,
3245,Southwest Raymond Street,,,,King County,Washington,United States of America,us,Seattle,98126,Delridge,Morgan Junction,,,,,,,
30030,45th Court South,,,,King County,Washington,United States of America,us,,98001,West Hill,,Lakeland North,,,,,,
5417,South 344th Street,,,,King County,Washington,United States of America,us,,98001,,,Lakeland South,,,,,,
4027,51st Avenue Southwest,,,,King County,Washington,United States of America,us,Seattle,98116,West Seattle,Admiral,,,,,,,
4261,South 184th Street,,McMicken Heights,SeaTac,King County,Washington,United States of America,us,,98188,,,,,,,,,
37620,26th Drive South,,,,King County,Washington,United States of America,us,,98003,,,Lakeland South,,,,,,
2812,V Court Southeast,,,,King County,Washington,United States of America,us,Auburn,98002,Forrest Villa,,,,,,,,
1431,170th Place Northeast,Braemar,Crossroads,,King County,Washington,United States of America,us,Bellevue,98008,,,,,,,,,
8280,Mountain Avenue Southeast,,,Snoqualmie,King County,Washington,United States of America,us,,98065,,Meadowbrook,,,,,,,
32219,44th Place Southwest,,Dash Point,Federal Way,King County,Washington,United States of America,us,,98023,,Twin Lakes,,,,,,,
3842,Northeast 91st Street,,,,King County,Washington,United States of America,us,Seattle,98115,Wedgwood,Wedgwood,,,,,,,
3923,Northeast 6th Street,,Kennydale,,King County,Washington,United States of America,us,Renton,98056,,President Park,,,,,,,
16938,Northeast 6th Street,,Lake Hills,,King County,Washington,United States of America,us,Bellevue,98008,,Bretton Wood,,,,,,,
,150th Place Southeast,,,,King County,Washington,United States of America,us,Bellevue,98006,,,,,,,,,
10355,240th Court Northeast,The Estates at Chandler,,Union Hill-Novelty Hill,King County,Washington,United States of America,us,,,Redmond Ridge East,,,,,,,,
3624,Northeast 117th Street,,,,King County,Washington,United States of America,us,Seattle,98125,Lake City,Cedar Park,,,,,,,
2098,227th Avenue Southeast,,Pine Lake,,King County,Washington,United States of America,us,Sammamish,98075,,,,,,,,,
,South Hinds Street,,,,King County,Washington,United States of America,us,Seattle,98144,Mount Baker,,,,,,,,Cheasty Greenspace
13129,195th Place Southeast,,,,King County,Washington,United States of America,us,,98027,,Ravenswood,,,,,,,
5363,South Kenyon Street,,,,King County,Washington,United States of America,us,Seattle,98118,Rainier Valley,Dunlap,,,,,,,
,East Mercer Street,,,,King County,Washington,United States of America,us,Seattle,98102,Capitol Hill,Eastlake,,,,,Gleneagles,,
8853,2nd Avenue South,,,,King County,Washington,United States of America,us,Seattle,98108,Georgetown,South Park,,,,,,,
1538,24th Court Northeast,Central Park,High Point,Issaquah,King County,Washington,United States of America,us,,98029,,,,,,,,,
4718,11th Avenue Northeast,,,,King County,Washington,United States of America,us,Seattle,98105,University District,Portage Bay,,,,,,,
21534,Southeast 299th Way,,One Hundred One Pines,,King County,Washington,United States of America,us,,98042,,The Ridge at Lake Sawyer,Lake Morton-Berrydale,,,,,,
4015,Burton Place West,,,,King County,Washington,United States of America,us,Seattle,98199,Magnolia,,,,,,,,
5944,128th Avenue Southeast,,,,King County,Washington,United States of America,us,Bellevue,98006,,,,,,,,,
7511,19th Avenue Northeast,,,,King County,Washington,United States of America,us,Seattle,98115,Wedgwood,,,,,,,,
18716,139th Way Southeast,,,,King County,Washington,United States of America,us,,98058,Fairwood,Addison Park,Fairwood,,,,,,
5010,Greenwood Avenue North,,,,King County,Washington,United States of America,us,Seattle,98103,Phinney Ridge,,,,,,,,
11717,Southeast 264th Place,,East Hill,,King County,Washington,United States of America,us,Kent,98030,,Fox Creek,,,,,,,
2353,228th Avenue Northeast,,Inglewood,,King County,Washington,United States of America,us,Sammamish,98074,,,,,,,,,
1520,Ilwaco Avenue Northeast,,Maplewood,,King County,Washington,United States of America,us,Renton,98059,,Summerwind,,,,,,,
8230,Northeast 125th Court,,Finn Hill,Kirkland,King County,Washington,United States of America,us,,98034,,,,,,,,,
2656,Northeast 160th Street,,Briarcrest,,King County,Washington,United States of America,us,Shoreline,98155,,Kenwood,,,,,,,
21027,Southeast 257th Place,,Cherokee Bay Park,Maple Valley,King County,Washington,United States of America,us,,98038,,Cedar Downs,,,,,,,
3812,88th Avenue Southeast,,Newport Shores,,King County,Washington,United States of America,us,Mercer Island,98040,,Fortuna,,,,,,,
8815,22nd Avenue Southwest,,Westwood,,King County,Washington,United States of America,us,Seattle,98106,,Highland Park,,,,,,,
13327,119th Avenue Northeast,,Kingsgate,Kirkland,King County,Washington,United States of America,us,,98034,,,,,,,,,
5907,220th Place Southeast,,Pine Lake,Issaquah,King County,Washington,United States of America,us,,98027,,,,,,,,,
22116,112th Place Southeast,,East Hill,,King County,Washington,United States of America,us,Kent,98031,,Willow Ridge,,,,,,,
34991,Southeast Burrows Way,,Spring Glen,Snoqualmie,King County,Washington,United States of America,us,,98065,,Crestview,,,,,,,
13059 B,42nd Avenue Northeast,,,,King County,Washington,United States of America,us,Seattle,98125,Lake City,Cedar Park,,,,,,,
5133,52nd Place Southeast,,,,King County,Washington,United States of America,us,Auburn,98092,Lakeland Hills,,,,,,,,
148,17th Avenue,,,,King County,Washington,United States of America,us,Seattle,98122,Central District,Little Saigon,,,,,,,
1009,Northeast 73rd Street,,,,King County,Washington,United States of America,us,Seattle,98115,Green Lake,,,,,,,,
2198,Northwest Coyote Creek Lane,Talus,Pine Lake,Issaquah,King County,Washington,United States of America,us,,98027,,,,,,,,,
2053,86th Avenue Northeast,,,,King County,Washington,United States of America,us,,98004,,,,,,Clyde Hill,,,
18433,Northeast 26th Way,,Kenilworth,Redmond,King County,Washington,United States of America,us,,98052,,,,,,,,,
5722,147th Avenue Northeast,,,,King County,Washington,United States of America,us,Bellevue,98007,,,,,,,,,
15307,110th Place Northeast,,Oskams Corner,,King County,Washington,United States of America,us,Bothell,98011,,Maple Glen,,,,,,,
14578,31st Avenue Northeast,,Briarcrest,,King County,Washington,United States of America,us,Shoreline,98155,,Kenwood,,,,,,,
4017,Midvale Avenue North,,,,King County,Washington,United States of America,us,Seattle,98103,Fremont,,,,,,,,
18107,Northeast 91st Court,Avondale Green,Campton,Redmond,King County,Washington,United States of America,us,,98052-6088,,,,,,,,,
1708,South 262nd Place,,,Des Moines,King County,Washington,United States of America,us,,98198,,Woodmont,,,,,,,
,163rd Court Northeast,,Earlmont,Redmond,King County,Washington,United States of America,us,,98052-3111,,Education Hill,,,,,,,
8833,Dibble Avenue Northwest,,Blue Ridge,,King County,Washington,United States of America,us,Seattle,98117,,Crown Hill,,,,,,,
2037,Boyer Avenue East,,,,King County,Washington,United States of America,us,Seattle,98112,Washington Park,Montlake,,,,,,,
29074,222nd Place Southeast,,Cherokee Bay Park,,King County,Washington,United States of America,us,Black Diamond,98010,,Sunridge at Elk Run,,,,,,,
7357,57th Avenue Northeast,,Inverness,,King County,Washington,United States of America,us,Seattle,98115,,Sand Point,,,,,,,
1320,33rd Avenue South,,,,King County,Washington,United States of America,us,Seattle,98144,Leschi,,,,,,,,
2266,Northeast 63rd Street,,,,King County,Washington,United States of America,us,Seattle,98115,University District,Ravenna,,,,,,,
3636,41st Avenue West,,,,King County,Washington,United States of America,us,Seattle,98199,Magnolia,,,,,,,,
1113,South 23rd Street,,Benson Hill,,King County,Washington,United States of America,us,Renton,98055,,Victoria Hills,,,,,,,
11819,1st Avenue South,,,Burien,King County,Washington,United States of America,us,,98168,,Beverly Park,,,,,,,
2715,South 366th Place,,,,King County,Washington,United States of America,us,,98003,,,Lakeland South,,,,,,
10532,12th Avenue Northeast,,Victory Heights,,King County,Washington,United States of America,us,Seattle,98125,,,,,,,,,
,244th PL SE,,Klahanie,,King County,Washington,United States of America,us,Sammamish,98075,,,,,,,,,
998,4th Avenue Northeast,West Highlands Park,Klahanie,Issaquah,King County,Washington,United States of America,us,,98029,,,,,,,,,
3788,77th Avenue Southeast,,Newport Shores,,King County,Washington,United States of America,us,Mercer Island,98040,,Mercer Heights,,,,,,,
1982,218th Lane Southeast,,Pine Lake,,King County,Washington,United States of America,us,Sammamish,98075,,,,,,,,,
8214,35th Avenue Southwest,,Westwood,,King County,Washington,United States of America,us,Seattle,98126,,High Point,,,,,,,
3002,South Dawson Street,,,,King County,Washington,United States of America,us,Seattle,98108,Rainier Valley,Columbia City,,,,,,,
7220,Northeast 152nd Place,,Moorlands,,King County,Washington,United States of America,us,Kenmore,98028,,,,,,,,,
705,Meadow Drive Southeast,,Harman Heights,North Bend,King County,Washington,United States of America,us,,98045,,,,,,,,,
2032,South 333rd Street,,,Federal Way,King County,Washington,United States of America,us,,98003,West Hill,,,,,,,,
3555,West McGraw Street,,Magnolia Village,,King County,Washington,United States of America,us,Seattle,98199,,Carleton Park,,Magnolia United Church of Christ,,,,,
31411,10th Avenue South,,,Federal Way,King County,Washington,United States of America,us,,98003,,,,,,,,,
28035,Maple Ridge Way Southeast,,Ravensdale,Maple Valley,King County,Washington,United States of America,us,,98038,,Maple Woods,,,,,,,
27005,138th Avenue Southeast,Morning Sun,Berrydale,,King County,Washington,United States of America,us,Kent,98042,,,,,,,,,
4735,South Bennett Street,,,,King County,Washington,United States of America,us,Seattle,98118,Rainier Valley,Seward Park,,,,,,,
4718,Stephens Avenue,,Stillwater,,King County,Washington,United States of America,us,Carnation,98014,,,,,,,,,
718,Southwest Austin Place,,,,King County,Washington,United States of America,us,Seattle,98106,Georgetown,Highland Park,,,,,,,
13219,118th Avenue Northeast,,Kingsgate,Kirkland,King County,Washington,United States of America,us,,98034,,,,,,,,,
10456,Southeast 24th Place,,,,King County,Washington,United States of America,us,Bellevue,98004,,,,,,,,,
6726,35th Place South,,,,King County,Washington,United States of America,us,Seattle,98118,Rainier Valley,Holly Park,,,,,,,
28833,191st Place Southeast,,Timberlane,,King County,Washington,United States of America,us,,98042,,,Lake Morton-Berrydale,,,,,,
9425,Hebner Avenue Southeast,,Upper Preston,Snoqualmie,King County,Washington,United States of America,us,,98065,,,,,,,,,
2426,Wickstrom Place Southwest,,,,King County,Washington,United States of America,us,Seattle,98116,West Seattle,Alki,,,,,,,
19327,Northeast 202nd Street,,Cottage Lake,,King County,Washington,United States of America,us,,98077,,,Cottage Lake,,,,,,
25304,120th Place Southeast,,East Hill,,King County,Washington,United States of America,us,Kent,98030,,Seven Oaks East,,,,,,,
22910,Southeast 281st Place,,Danville,Maple Valley,King County,Washington,United States of America,us,,98038,,Diamond Hills,,,,,,,
44559,Southeast 146th Street,,Riverbend,,King County,Washington,United States of America,us,,98045,,,,,,,,,
1943,Lafromboise Street,,Boise,Enumclaw,King County,Washington,United States of America,us,,98022,,,,,,,,,
27130,52nd Avenue South,,Meredith,,King County,Washington,United States of America,us,,98032,,Wyngates,,,,,,,
9602,Fremont Avenue North,,,,King County,Washington,United States of America,us,Seattle,98103,Greenwood,Licton Springs,,,,,,,
7743,Earl Avenue Northwest,,,,King County,Washington,United States of America,us,Seattle,98117,Ballard,Loyal Heights,,,,,,,
16804,135th Place Southeast,,,,King County,Washington,United States of America,us,,98058,Fairwood,,Fairwood,,,,,,
14801,Northeast 66th Street,Spiritbrook,Earlmont,Redmond,King County,Washington,United States of America,us,,98052,,,,,,,,,
8457,55th Avenue South,,,,King County,Washington,United States of America,us,Seattle,98118,Rainier Valley,Dunlap,,,,,,,
719,North 80th Street,,,,King County,Washington,United States of America,us,Seattle,98103,Greenwood,Licton Springs,,,,,,,
22677,Southeast 13th Street,,Pine Lake,,King County,Washington,United States of America,us,Sammamish,98075,,,,,,,,,
12207,Northeast 139th Place,,Kingsgate,Kirkland,King County,Washington,United States of America,us,,98034,,,,,,,,,
27629,Northeast 151st Place,Hawthorne,Novelty,,King County,Washington,United States of America,us,Duvall,98019,,,,,,,,,
540,33rd Avenue South,,,,King County,Washington,United States of America,us,Seattle,98144,Leschi,,,,,,,,
19498,Southeast 28th Place,,Mint Grove,,King County,Washington,United States of America,us,Sammamish,98075,,,,,,,,,
378,Nile Place Northeast,,,,King County,Washington,United States of America,us,Renton,98059,,Willowbrook,,,,,,,
42383,Southeast 168th Street,,Cedar Falls,,King County,Washington,United States of America,us,,98045,,Wilderness Rim,,,,,,,
7600,Ridgecrest Lane,,Kennydale,,King County,Washington,United States of America,us,Mercer Island,98040,,,,,,,,,
23500,Northeast 184th Street,,Pearson Eddy,,King County,Washington,United States of America,us,,98077,,,Cottage Lake,,,,Mulvey House,,
2208,Virginia Court,,,,King County,Washington,United States of America,us,,98354,,,,,,Milton,,,
2200,South Hanford Street,,,,King County,Washington,United States of America,us,Seattle,98144,Beacon Hill,,,,,,,,
,K Street Southeast,,,,King County,Washington,United States of America,us,Auburn,98002,South Auburn,,,Gildo Rey Elementary School,,,,,
6623,156th Avenue Southeast,,Coal Creek,,King County,Washington,United States of America,us,Bellevue,98006,,,,,,,,,
18720,18th Avenue Northeast,,Ridgecrest,,King County,Washington,United States of America,us,Shoreline,98155,,North City,,,,,,,
16828,135th Place Southeast,,,,King County,Washington,United States of America,us,,98058,Fairwood,,Fairwood,,,,,,
159,Southwest 192nd Street,,,,King County,Washington,United States of America,us,Normandy Park,98166,,,,,,,,,
23712,Northeast Greens Crossing Road,Woodlands,,Union Hill-Novelty Hill,King County,Washington,United States of America,us,,98053,Trilogy,,,,,,,,
5213,Northeast 2nd Place,,,,King County,Washington,United States of America,us,Renton,98059,,Alder Crossing,,,,,,,
20021,95th Place Northeast,,,,King County,Washington,United States of America,us,Bothell,98011,Canyon Park,,,,,,,,
10301,45th Avenue Northeast,,Alicia Park,,King County,Washington,United States of America,us,Seattle,98125,,Lavilla,,,,,,,
,,,Cougar Hills,,King County,Washington,United States of America,us,Bellevue,99007,,,,,,,,,
8810,Delridge Way Southwest,,Westwood,,King County,Washington,United States of America,us,Seattle,98106,,Highland Park,,,,,,,
4014,Northeast 3rd Lane,,,,King County,Washington,United States of America,us,Renton,98056,,,,,,,,,
34917,176th Avenue Southeast,,Newaukum,,King County,Washington,United States of America,us,,98092,,,,,,,,,
6709,Roosevelt Way Northeast,,,,King County,Washington,United States of America,us,Seattle,98115,Green Lake,,,,,,North Towne Manor,,
7741,29th Avenue Northwest,,North Beach,,King County,Washington,United States of America,us,Seattle,98117,,Loyal Heights,,,,,,,
8719,228th Way Northeast,Ridgewood,,Union Hill-Novelty Hill,King County,Washington,United States of America,us,,98053,Redmond Ridge,,,,,,,,
,Southeast 118th Street,,High Valley,,King County,Washington,United States of America,us,,98027-2604,,,,,,,,,
14921,Southeast Auburn Black Diamond Road,,Berrydale,,King County,Washington,United States of America,us,,98092,,Wynaco,Lake Morton-Berrydale,,,,,,
21047,Northeast Sahalee Country Club Drive,,Inglewood,,King County,Washington,United States of America,us,Sammamish,98074,,,,,,,,,
4725,81st Avenue Southeast,,,,King County,Washington,United States of America,us,Mercer Island,98040,,,,,,,,,
22509,Southeast 267th Street,,Cherokee Bay Park,Maple Valley,King County,Washington,United States of America,us,,98038,,Wilderness Brook,,,,,,,
2640,South 227th Place,,,Des Moines,King County,Washington,United States of America,us,,98198,,Pacific Ridge,,,,,,,
,Southeast 52nd Place,,,,King County,Washington,United States of America,us,Bellevue,98006,,,,,,,,,
9743,Evanston Avenue North,,,,King County,Washington,United States of America,us,Seattle,98103,Greenwood,Licton Springs,,,,,,,
34827,27th Avenue South,,,,King County,Washington,United States of America,us,,98003,West Hill,Emery Woods,Lakeland South,,,,,,
12158,Shorewood Drive Southwest,,Arbor Heights,Burien,King County,Washington,United States of America,us,,98146,,Seola Beach,,,,,,,
13720,Midvale Avenue North,,Foy,,King County,Washington,United States of America,us,Seattle,98133,,,,,,,,,
3311,Northwest 75th Street,,,,King County,Washington,United States of America,us,Seattle,98117,Ballard,Loyal Heights,,,,,,,
,Redmond Ridge Drive Northeast,The Trails,,Union Hill-Novelty Hill,King County,Washington,United States of America,us,,98053,Redmond Ridge,,,,,,,,
3644,Phinney Avenue North,,,,King County,Washington,United States of America,us,Seattle,98103,Fremont,,,,,,,,
2226,Northwest 58th Street,,,,King County,Washington,United States of America,us,Seattle,98107,Ballard,Sunset Hill,,,,,,,
3250,West Viewmont Way West,,,,King County,Washington,United States of America,us,Seattle,98199,Magnolia,Carleton Park,,,,,,,
17626,115th Place Southeast,,Benson Hill,,King County,Washington,United States of America,us,Renton,98055,,Kinkade,,,,,,,
,,,,,King County,Washington,United States of America,us,Mercer Island,98040,,Mercer Heights,,,,,,,
11205,Beacon Avenue South,,Skyway,,King County,Washington,United States of America,us,Seattle,98178,,,,,,,,,
22004,Southeast 269th Street,,Cherokee Bay Park,Maple Valley,King County,Washington,United States of America,us,,98038,,Cherokee Bay,,,,,,,
9029,Northeast 134th Street,,Finn Hill,Kirkland,King County,Washington,United States of America,us,,98034,,Simonds Estates,,,,,,,
4201,Island Crest Way,,Newport Shores,,King County,Washington,United States of America,us,Mercer Island,98040,,Mercer Heights,,,,,,,
3426,21st Avenue South,,,,King County,Washington,United States of America,us,Seattle,98144,Beacon Hill,,,,,,,,
13021,13th Avenue Northwest,,,,King County,Washington,United States of America,us,Seattle,98177,Broadview,,,,,,,,
22020,127th Court Southeast,,East Hill,,King County,Washington,United States of America,us,Kent,98031,,Hillshire Terrace,,,,,,,
26222,189th Place Southeast,,Timberlane,,King County,Washington,United States of America,us,Covington,98042,,Covington Woods,,,,,,,
3425,21st Avenue West,,,,King County,Washington,United States of America,us,Seattle,98199,Magnolia,Interbay,,,,,,,
19000,196th Avenue Southeast,,Maple Valley Heights,,King County,Washington,United States of America,us,,98058,,The Grove at Spring Lake,Maple Heights-Lake Desire,,,,,,
15646,Southeast Fairwood Boulevard,,,,King County,Washington,United States of America,us,,98058,,Fairwood Greens,Fairwood,,,,,,
1004,207th Place Northeast,,Inglewood,,King County,Washington,United States of America,us,Sammamish,98074,,,,,,,,,
470,Southwest Mount Baker Drive,,,Issaquah,King County,Washington,United States of America,us,,98027,,Maleki Meadows,,,,,,,
18874,Northeast 165th Street,Cottage Lake Beach Club,Cottage Lake,,King County,Washington,United States of America,us,,98072,,,Cottage Lake,,,,,,
18234,Corliss Avenue North,,Echo Lake,,King County,Washington,United States of America,us,Shoreline,98133,,Meridian Park,,,,,,,
323,25th Avenue South,,,,King County,Washington,United States of America,us,Seattle,98144,Leschi,,,,,,Gideon-Mathews Gardens,,
27102,227th Place Southeast,,Danville,Maple Valley,King County,Washington,United States of America,us,,98038,,Rock Creek Meadows,,,,,,,
311,L Street Southeast,,,,King County,Washington,United States of America,us,Auburn,98002,South Auburn,,,,,,,,
2219,30th Avenue West,,,,King County,Washington,United States of America,us,Seattle,98199,Magnolia,Lawton Park,,,,,,,
17251,Northeast 2nd Place,Valley Greene,Lake Hills,,King County,Washington,United States of America,us,Bellevue,98008,,,,,,,,,
1675,218th Court Southeast,,Pine Lake,,King County,Washington,United States of America,us,Sammamish,98075,,,,,,,,,
1638,Peach Court East,,,,King County,Washington,United States of America,us,Seattle,98112,Capitol Hill,Montlake,,,,,,,
1829,29th Avenue,,,,King County,Washington,United States of America,us,Seattle,98122,Madrona,,,,,,,,
,175th Way Southeast,,Meridian Heights,,King County,Washington,United States of America,us,Covington,98042,,Foxfield,,,,,,,
14756,444th Avenue Southeast,,Riverbend,,King County,Washington,United States of America,us,,98045,,,,,,,,,
12332,210th Place Southeast,,High Valley,,King County,Washington,United States of America,us,,98027,,,,,,,,,
23329,208th Avenue Southeast,,Wilderness Village,,King County,Washington,United States of America,us,,98038,,,,,,,,,
15439,87th Place Northeast,,Inglewood,,King County,Washington,United States of America,us,Kenmore,98028,,Simonds Estates,,,,,,,
1007,14th Avenue East,,,,King County,Washington,United States of America,us,Seattle,98112,Capitol Hill,Eastlake,,,,,,,
1401,Edmonds Avenue Northeast,,Kennydale,,King County,Washington,United States of America,us,Renton,98056,,,,,,,,,
12226,Phinney Avenue North,,,,King County,Washington,United States of America,us,Seattle,98133,Broadview,,,,,,,,
1722,Northwest 61st Street,,,,King County,Washington,United States of America,us,Seattle,98107,Ballard,Sunset Hill,,,,,,,
2642,Northwest 59th Street,,,,King County,Washington,United States of America,us,Seattle,98107,Ballard,Sunset Hill,,,,,,,
12516,Northeast 137th Place,,Kingsgate,Kirkland,King County,Washington,United States of America,us,,98034,,,,,,,,,
14817,25th Avenue Northeast,,Briarcrest,,King County,Washington,United States of America,us,Shoreline,98155,,Kenwood,,,,,,,
9727,46th Avenue Northeast,,Inverness,,King County,Washington,United States of America,us,Seattle,98115,,Lavilla,,,,,,,
9113,Northeast 14th Street,,,,King County,Washington,United States of America,us,,98004,,,,,,Clyde Hill,,,
3003,Southwest 317th Place,,,Federal Way,King County,Washington,United States of America,us,,98023,,,,,,,,,
4375,338th Place Southeast,,Spring Glen,,King County,Washington,United States of America,us,,98024,,,Fall City,,,,,,
,Southeast Pratt Street,,Spring Glen,Snoqualmie,King County,Washington,United States of America,us,,98065,,Fairway,,,,,,,
21028,Southeast 35th Place,,Pine Lake,,King County,Washington,United States of America,us,Sammamish,98075,,,,,,,,,
1220,South 120th Street,,Boulevard Park,Burien,King County,Washington,United States of America,us,,98168,,Beverly Park,,,,,,,
17798,233rd Place Northeast,,Pearson Eddy,,King County,Washington,United States of America,us,,98077,,,Cottage Lake,,,,,,
25957,Northeast 27th Drive,,Ames Lake,,King County,Washington,United States of America,us,,98053,,,Ames Lake,,,,,,
13527,231st Place Southeast,,Mirrormount Estates,,King County,Washington,United States of America,us,,98027,,Four Creeks,Mirrormont,,,,,,
31323,32nd Avenue South,,,,King County,Washington,United States of America,us,,98001,West Hill,,Lakeland North,,,,,,
14734,209th Avenue Southeast,,Cedar Grove,,King County,Washington,United States of America,us,,98059,East Renton Highlands,,,,,,,,
17355,Southeast 134th Street,,,,King County,Washington,United States of America,us,,98059,East Renton Highlands,,,,,,,,
,Northeast 25th Street,Brae Burn,Kenilworth,Redmond,King County,Washington,United States of America,us,,98008-3439,,,,,Brae Burn Golf Course,,,,
9562,Northeast 1st Street,,,,King County,Washington,United States of America,us,Bellevue,98004,,Clyde,,,,,,,
16977,199th Place Northeast,,Cottage Lake,,King County,Washington,United States of America,us,,98077,,,Cottage Lake,,,,,,
22716,Southeast 273rd Street,,Danville,Maple Valley,King County,Washington,United States of America,us,,98038,,Elk Run,,,,,,,
10826,Cornell Avenue South,,Black River Junction,,King County,Washington,United States of America,us,,98178,,Lakeridge,Bryn Mawr-Skyway,,,,,,
22801,Northeast 20th Place,,Inglewood,,King County,Washington,United States of America,us,Sammamish,98074,,,,,,,,,
18629,Ridgefield Road Northwest,Innis Arden,The Highlands,,King County,Washington,United States of America,us,Shoreline,98177,,,,,,,,,
9855,44th Avenue Southwest,,Endolyne,,King County,Washington,United States of America,us,Seattle,98136,,,,,,,,,
5222,South Holly Street,,,,King County,Washington,United States of America,us,Seattle,98118,Rainier Valley,Brighton,,,,,,,
